address_name,borough,street_code,school_name,DataYear
7 avenue,NY,10610,Frederick Douglass Academy,2021
10 avenue,NY,11010,Independence High School,2021
academy street,NY,11310,Inwood Early College for Health and Information Technologies,2021
academy street,NY,11310,High School for Excellence and Innovation,2021
amsterdam avenue,NY,11710,"Maxine Greene High School for Imaginative Inquiry, The",2021
amsterdam avenue,NY,11710,"Urban Assembly School for Media Studies, The",2021
amsterdam avenue,NY,11710,Fiorello H. LaGuardia High School of Music & Art and Performing Arts,2021
amsterdam avenue,NY,11710,"High School for Law, Advocacy and Community Justice",2021
amsterdam avenue,NY,11710,High School of Arts and Technology,2021
amsterdam avenue,NY,11710,Manhattan / Hunter Science High School,2021
amsterdam avenue,NY,11710,Special Music School,2021
astor place,NY,11820,Harvey Milk High School,2021
audubon avenue,NY,12010,"College Academy, The",2021
audubon avenue,NY,12010,High School for Media and Communications,2021
audubon avenue,NY,12010,High School for Law and Public Service,2021
audubon avenue,NY,12010,High School for Health Careers and Sciences,2021
avenue of the americas,NY,10510,NYC iSchool,2021
avenue of the americas,NY,10510,Chelsea Career and Technical Education High School,2021
beaver street,NY,12950,Richard R. Green High School of Teaching,2021
broad street,NY,13590,Millennium High School,2021
broadway,NY,13610,"Urban Assembly School of Business for Young Women, The",2021
broadway,NY,13610,City College Academy of the Arts,2021
chambers street,NY,14710,Stuyvesant High School,2021
clarkson street,NY,15420,City-As-School,2021
columbia street,NY,15610,"New Explorations into Science, Technology and Math High School (NEST+m)",2021
convent avenue,NY,15910,"High School for Math, Science and Engineering at City College (HSMSE)",2021
east 12 street,NY,17230,East Side Community School,2021
east 15 street,NY,17290,"Clinton School, The",2021
east 15 street,NY,17290,Institute for Collaborative Education (ICE),2021
east 15 street,NY,17290,High School for Health Professions and Human Services,2021
east 22 street,NY,17430,School of the Future High School,2021
east 23 street,NY,17450,47 The American Sign Language and English Secondary School,2021
east 25 street,NY,17490,Baruch College Campus High School,2021
east 33 street,NY,17650,Manhattan Academy for Arts & Language,2021
east 33 street,NY,17650,Murray Hill Academy,2021
east 33 street,NY,17650,Unity Center for Urban Technologies,2021
east 56 street,NY,18110,Art and Design High School,2021
east 67 street,NY,18330,Vanguard High School,2021
east 67 street,NY,18330,Manhattan International High School,2021
east 67 street,NY,18330,Talent Unlimited High School,2021
east 76 street,NY,18510,Eleanor Roosevelt High School,2021
east 96 street,NY,18890,Life Sciences Secondary School,2021
east 105 street,NY,19070,Park East High School,2021
east 106 street,NY,19090,Young Women's Leadership School (TYWLS),2021
east 109 street,NY,19150,Esperanza Preparatory Academy,2021
east houston street,NY,19890,Bard High School Early College,2021
edgecombe avenue,NY,19990,Eagle Academy for Young Men of Harlem,2021
edgecombe avenue,NY,19990,Mott Hall High School,2021
forsyth street,NY,20640,Forsyth Satellite Academy,2021
grand street,NY,21690,Essex Street Academy,2021
grand street,NY,21690,"Urban Assembly Academy of Government and Law, The",2021
grand street,NY,21690,Lower Manhattan Arts Academy,2021
grand street,NY,21690,New Design High School,2021
grand street,NY,21690,High School for Dual Language and Asian Studies,2021
henry street,NY,22690,Orchard Collegiate Academy,2021
hester street,NY,22890,Pace High School,2021
hester street,NY,22890,Emma Lazarus High School for English Language Scholars,2021
irving place,NY,23390,Gramercy Arts High School,2021
irving place,NY,23390,"High School for Language and Diplomacy, The",2021
irving place,NY,23390,International High School at Union Square,2021
irving place,NY,23390,Union Square Academy for Health Sciences,2021
irving place,NY,23390,Academy for Software Engineering (AFSE),2021
lexington avenue,NY,24890,"Heritage School, The",2021
madison avenue,NY,25390,Central Park East High School,2021
madison avenue,NY,25390,"Urban Assembly School for Global Commerce, The",2021
monroe street,NY,26390,University Neighborhood High School,2021
pearl street,NY,28490,"Urban Assembly School for Emergency Management, The",2021
pearl street,NY,28490,Manhattan Early College School for Advertising,2021
pearl street,NY,28490,Urban Assembly Maker Academy,2021
pearl street,NY,28490,Murry Bergtraum High School for Business Careers,2021
pleasant avenue,NY,29090,Manhattan Center for Science and Mathematics,2021
short avenue,NY,30520,Urban Assembly New York Harbor School,2021
trinity place,NY,32615,Leadership and Public Service High School,2021
trinity place,NY,32615,High School of Economics and Finance,2021
west 14 street,NY,34050,Harvest Collegiate High School,2021
west 17 street,NY,34110,N.Y.C. Lab School for Collaborative Studies,2021
west 17 street,NY,34110,N.Y.C. Museum School,2021
west 18 street,NY,34130,"James Baldwin School, The",2021
west 18 street,NY,34130,Manhattan Business Academy,2021
west 18 street,NY,34130,Landmark High School,2021
west 18 street,NY,34130,Quest to Learn,2021
west 18 street,NY,34130,Hudson High School of Learning Technologies,2021
west 18 street,NY,34130,Humanities Preparatory Academy,2021
west 22 street,NY,34210,Manhattan Village Academy,2021
west 24 street,NY,34250,"High School of Fashion Industries, The",2021
west 43 street,NY,34630,Repertory Company High School for Theatre Arts,2021
west 44 street,NY,34650,Beacon High School,2021
west 46 street,NY,34690,Jacqueline Kennedy Onassis High School,2021
west 48 street,NY,34730,Professional Performing Arts High School (PPAS),2021
west 49 street,NY,34750,Stephen T. Mather Building Arts & Craftsmanship High School,2021
west 49 street,NY,34750,Business of Sports School,2021
west 49 street,NY,34750,Urban Assembly Gateway School for Technology,2021
west 50 street,NY,34770,Food and Finance High School,2021
west 50 street,NY,34770,High School of Hospitality Management,2021
west 50 street,NY,34770,"Urban Assembly School of Design and Construction, The",2021
west 50 street,NY,34770,"Facing History School, The",2021
west 50 street,NY,34770,Manhattan Bridges High School,2021
west 56 street,NY,34890,High School for Environmental Studies,2021
west 61 street,NY,34990,West End Secondary School,2021
west 84 street,NY,35450,"Urban Assembly School for Green Careers, The",2021
west 84 street,NY,35450,"Global Learning Collaborative, The",2021
west 84 street,NY,35450,Frank McCourt High School,2021
west 114 street,NY,36050,Wadleigh Secondary School for the Performing & Visual Arts,2021
west 114 street,NY,36050,Frederick Douglass Academy II Secondary School,2021
west 123 street,NY,36230,Columbia Secondary School,2021
west 129 street,NY,36350,Urban Assembly School for the Performing Arts,2021
west 135 street,NY,36470,Thurgood Marshall Academy for Learning and Social Change,2021
west 135 street,NY,36470,A. Philip Randolph Campus High School,2021
west 158 street,NY,36930,Community Health Academy of the Heights,2021
west 165 street,NY,37070,Gregorio Luperon High School for Science and Mathematics,2021
west 182 street,NY,37390,Washington Heights Expeditionary Learning School (WHEELS),2021
antin place,BX,08930,Bronx High School for the Visual Arts,2021
astor avenue,BX,09620,Collegiate Institute for Math and Science (CIMS),2021
astor avenue,BX,09620,Astor Collegiate Academy,2021
astor avenue,BX,09620,Bronxdale High School,2021
astor avenue,BX,09620,High School of Language and Innovation,2021
astor avenue,BX,09620,Pelham Preparatory Academy,2021
bathgate avenue,BX,11420,"Urban Assembly School for Applied Math and Science, The",2021
bathgate avenue,BX,11420,Mott Hall Bronx High School,2021
bathgate avenue,BX,11420,Validus Preparatory Academy,2021
baychester avenue,BX,11620,Bronx Health Sciences High School,2021
baychester avenue,BX,11620,Harry S Truman High School,2021
boston road,BX,13820,Morris Academy for Collaborative Studies,2021
boston road,BX,13820,Bronx International High School,2021
boston road,BX,13820,School for Excellence,2021
boston road,BX,13820,High School for Violin and Dance,2021
boston road,BX,13820,Explorations Academy H.S.,2021
boston road,BX,13820,Bronx Envision Academy,2021
boynton avenue,BX,14220,Pan American International High School at Monroe,2021
boynton avenue,BX,14220,"Metropolitan Soundview High School, The",2021
boynton avenue,BX,14220,High School of World Cultures,2021
brook avenue,BX,15720,International Community High School,2021
crotona avenue,BX,22320,Bronx Academy for Software Engineering (BASE),2021
crotona avenue,BX,22320,Crotona International High School,2021
crotona avenue,BX,22320,High School for Energy and Technology,2021
east 145 street,BX,26010,South Bronx Preparatory: A College Board School,2021
east 145 street,BX,26010,"Laboratory School of Finance and Technology, The",2021
east 151 street,BX,26190,Bronx Design and Construction Academy,2021
east 151 street,BX,26190,Alfred E. Smith Career and Technical Education High School,2021
east 163 street,BX,26550,"Bronx School for Law, Government and Justice",2021
east 164 street,BX,26580,Bronx Early College Academy for Teaching & Learning,2021
east 172 street,BX,26820,Bronx Collegiate Academy,2021
east 172 street,BX,26820,Dreamyard Preparatory School,2021
east 172 street,BX,26820,New Directions Secondary School,2021
east 172 street,BX,26820,Bronx High School of Business,2021
east 172 street,BX,26820,Bronx High School for Medical Science,2021
east 172 street,BX,26820,Claremont International High School,2021
east 172 street,BX,26820,Mott Hall V,2021
east 172 street,BX,26820,"Cinema School, The",2021
east 180 street,BX,27060,Wings Academy,2021
east 228 street,BX,28470,Academy for Scholarship and Entrepreneurship: A College Board School,2021
east 228 street,BX,28470,New World High School,2021
east 228 street,BX,28470,"Bronxwood Preparatory Academy, The",2021
east fordham road,BX,29220,West Bronx Academy for the Future,2021
east fordham road,BX,29220,Knowledge and Power Preparatory Academy International High School (KAPPA),2021
east fordham road,BX,29220,Belmont Preparatory High School,2021
east fordham road,BX,29220,Fordham High School for the Arts,2021
east fordham road,BX,29220,Fordham Leadership Academy,2021
east fordham road,BX,29220,Bronx High School for Law and Community Service,2021
east gun hill road,BX,29320,Bronx High School for Writing and Communication Arts,2021
east gun hill road,BX,29320,Bronx Lab School,2021
east gun hill road,BX,29320,High School of Computers and Technology,2021
east gun hill road,BX,29320,Bronx Academy of Health Careers,2021
east gun hill road,BX,29320,High School for Contemporary Arts,2021
east gun hill road,BX,29320,Bronx Aerospace High School,2021
east tremont avenue,BX,29620,Renaissance High School for Musical Theater and the Arts,2021
east tremont avenue,BX,29620,Pelham Lab High School,2021
east tremont avenue,BX,29620,Schuylerville Preparatory High School,2021
east tremont avenue,BX,29620,Bronx River High School,2021
east tremont avenue,BX,29620,Herbert H. Lehman High School,2021
east tremont avenue,BX,29620,Westchester Square Academy,2021
fulton avenue,BX,34220,Eximius College Preparatory Academy: A College Board School,2021
fulton avenue,BX,34220,Bronx Center for Science and Mathematics,2021
gerard avenue,BX,35020,Community School for Social Justice,2021
gerard avenue,BX,35020,Health Opportunities High School,2021
goulden avenue,BX,36060,High School of American Studies at Lehman College,2021
home street,BX,40520,Bronx Latin,2021
home street,BX,40520,Bronx Career and College Preparatory High School,2021
jennings street,BX,42720,Fannie Lou Hamer Freedom High School,2021
jerome avenue,BX,42820,Comprehensive Model School Project M.S. 327,2021
lafayette avenue,BX,45120,Millennium Art Academy,2021
lafayette avenue,BX,45120,Antonia Pantoja Preparatory Academy: A College Board School,2021
lafayette avenue,BX,45120,Bronx Bridges High School,2021
lafayette avenue,BX,45120,Gotham Collaborative High School,2021
lafayette avenue,BX,45120,Bronx Compass High School,2021
longwood avenue,BX,46820,Longwood Preparatory Academy,2021
macombs road,BX,48220,Academy for Language and Technology,2021
morris avenue,BX,52120,"Urban Assembly Bronx Academy of Letters, The",2021
morris avenue,BX,52120,Young Women's Leadership School of the Bronx (TYWLS),2021
reservoir avenue,BX,60820,Kingsbridge International High School,2021
reservoir avenue,BX,60820,International School for Liberal Arts,2021
reservoir avenue,BX,60820,High School for Teaching and the Professions,2021
reservoir avenue,BX,60820,"Celia Cruz Bronx High School of Music, The",2021
reservoir avenue,BX,60820,Discovery High School,2021
simpson street,BX,65020,Bronx Studio School for Writers and Artists,2021
southern boulevard,BX,65320,"H.E.R.O. High (Health, Education, and Research Occupations High School)",2021
southern boulevard,BX,65320,East Bronx Academy for the Future,2021
st anns avenue,BX,65620,Mott Haven Village Preparatory High School,2021
st anns avenue,BX,65620,University Heights Secondary School,2021
story avenue,BX,66920,Bronx Arena High School,2021
terrace view avenue,BX,67880,Bronx Engineering and Technology Academy,2021
terrace view avenue,BX,67880,Bronx School of Law and Finance,2021
terrace view avenue,BX,67880,Marble Hill High School for International Studies,2021
terrace view avenue,BX,67880,Bronx Theatre High School,2021
tibbett avenue,BX,68320,In-Tech Academy (M.S. / High School 368),2021
tinton avenue,BX,69020,School for Tourism and Hospitality,2021
webster avenue,BX,73720,Bronx Leadership Academy High School,2021
webster avenue,BX,73720,Theatre Arts Production Company School,2021
west 205 street,BX,74880,"Bronx High School of Science, The",2021
west 231 street,BX,74960,"Marie Curie School for Medicine, Nursing, and Health Professions, The",2021
west 237 street,BX,75110,Riverdale / Kingsbridge Academy (Middle School / High School 141) (RKA),2021
white plains road,BX,77150,Women's Academy of Excellence,2021
white plains road,BX,77150,"Archimedes Academy for Math, Science and Technology Applications",2021
7 avenue,K,05780,John Jay School for Law,2021
7 avenue,K,05780,Cyberarts Studio Academy,2021
7 avenue,K,05780,Park Slope Collegiate,2021
7 avenue,K,05780,Millennium Brooklyn High School,2021
16 avenue,K,06680,Urban Assembly School for Leadership and Empowerment,2021
20 avenue,K,07080,Franklin Delano Roosevelt High School,2021
21 avenue,K,07230,Brooklyn Studio Secondary School,2021
35 street,K,08330,Sunset Park High School,2021
67 street,K,09930,High School of Telecommunication Arts and Technology,2021
80 street,K,10580,New Utrecht High School,2021
adams street,K,11800,"Urban Assembly School for Law and Justice, The",2021
adams street,K,11800,Urban Assembly Institute of Math and Science for Young Women,2021
albany avenue,K,12130,Pathways in Technology Early College High School (P-TECH),2021
albany avenue,K,12130,Academy for Health Careers,2021
avenue l,K,14180,Edward R. Murrow High School,2021
avenue x,K,14780,John Dewey High School,2021
avenue x,K,14780,Origins High School,2021
avenue x,K,14780,Professional Pathways High School,2021
baltic street,K,15180,Digital Arts and Cinema Technology High School,2021
baltic street,K,15180,"Boerum Hill School for International Studies, The",2021
baltic street,K,15180,Cobble Hill School of American Studies,2021
bedford avenue,K,18630,Bedford Academy High School,2021
bedford avenue,K,18630,A-TECH High School,2021
bedford avenue,K,18630,Midwood High School,2021
bedford avenue,K,18630,James Madison High School,2021
benson avenue,K,19030,International High School at Lafayette,2021
benson avenue,K,19030,High School of Sports Management,2021
benson avenue,K,19030,Kingsborough Early College School,2021
benson avenue,K,19030,Life Academy High School for Film and Music,2021
benson avenue,K,19030,Leaders High School,2021
bergen street,K,19230,Brooklyn Collegiate: A College Board School,2021
brighton 4 road,K,21850,William E. Grady Career and Technical Education High School,2021
bristol street,K,23130,Frederick Douglass Academy VII High School,2021
bristol street,K,23130,Teachers Preparatory High School,2021
broadway,K,23230,Brooklyn High School for Law and Technology,2021
bushwick avenue,K,23930,Young Women's Leadership School of Brooklyn (TYWLS),2021
bushwick avenue,K,23930,Bushwick Leaders High School for Academic Excellence,2021
carroll street,K,24830,Medgar Evers College Preparatory School,2021
classon avenue,K,26730,International High School at Prospect Heights,2021
classon avenue,K,26730,"High School for Global Citizenship, The",2021
classon avenue,K,26730,Brooklyn Academy of Science and the Environment (BASE),2021
classon avenue,K,26730,Brooklyn School for Music & Theatre,2021
classon avenue,K,26730,Clara Barton High School,2021
clinton avenue,K,27430,Benjamin Banneker Academy,2021
coney island avenue,K,28830,Brooklyn College Academy,2021
dean street,K,31830,Brooklyn High School of the Arts,2021
dekalb avenue,K,31530,EBC High School for Public Service - Bushwick,2021
east 100 street,K,38182,Olympus Academy,2021
eastern parkway,K,38430,Aspirations Diploma Plus High School,2021
elton street,K,39230,Academy for Young Writers,2021
elton street,K,39230,Spring Creek Community School,2021
flatbush avenue,K,40930,Academy for College Preparation and Career Exploration: A College Board School,2021
flatbush avenue,K,40930,Academy of Hospitality and Tourism,2021
flatbush avenue,K,40930,High School for Youth and Community Development at Erasmus,2021
flatbush avenue,K,40930,High School for Service & Learning at Erasmus,2021
flatbush avenue,K,40930,"Science, Technology and Research Early College High School at Erasmus (STAR)",2021
flatbush avenue extension,K,40830,Urban Assembly School for Music and Art,2021
flatbush avenue extension,K,40830,"Science Skills Center High School for Science, Technology and the Creative Arts",2021
flatbush avenue extension,K,40830,Brooklyn International High School,2021
flatlands avenue,K,41030,Brooklyn Community High School for Excellence and Equity,2021
flatlands avenue,K,41030,Brooklyn Theatre Arts High School,2021
flatlands avenue,K,41030,Victory Collegiate High School,2021
flatlands avenue,K,41030,Academy for Conservation and the Environment,2021
fountain avenue,K,41830,School for Classics High School,2021
fulton street,K,42730,Boys and Girls High School,2021
fulton street,K,42730,Nelson Mandela High School,2021
graham avenue,K,44930,"Brooklyn Latin School, The",2021
graham avenue,K,44930,"Williamsburg High School of Art and Technology, The",2021
graham avenue,K,44930,Lyons Community School,2021
grand avenue,K,45030,Gotham Professional Arts Academy,2021
grand street,K,45130,PROGRESS High School for Professional Careers,2021
grand street,K,45130,East Williamsburg Scholars Academy,2021
grand street,K,45130,"High School for Enterprise, Business and Technology, The",2021
henry street,K,48830,Brooklyn Collaborative Studies,2021
herkimer street,K,49130,Eagle Academy for Young Men II,2021
heyward street,K,49530,Juan Morel Campos Secondary School,2021
hooper street,K,50530,El Puente Academy for Peace and Justice,2021
irving avenue,K,52130,"Brooklyn School for Math and Research, The",2021
irving avenue,K,52130,Academy for Excellence in Leadership,2021
irving avenue,K,52130,"Brooklyn School for Social Justice, The",2021
irving avenue,K,52130,"Academy of Urban Planning and Engineering, The",2021
jamaica avenue,K,52730,Multicultural High School,2021
jamaica avenue,K,52730,Academy of Innovative Technology,2021
jamaica avenue,K,52730,Brooklyn Lab School,2021
jamaica avenue,K,52730,Cypress Hills Collegiate Preparatory School,2021
jamaica avenue,K,52730,"Urban Assembly School for Collaborative Healthcare, The",2021
kingston avenue,K,54070,"School for Human Rights, The",2021
kingston avenue,K,54070,High School for Public Service: Heroes of Tomorrow,2021
kingston avenue,K,54070,Brooklyn Institute for Liberal Arts (BILA),2021
marcy avenue,K,58730,Brooklyn Academy High School,2021
north 6 street,K,66230,Brooklyn Preparatory High School,2021
north 6 street,K,66230,Williamsburg High School for Architecture and Design,2021
north 6 street,K,66230,Williamsburg Preparatory School,2021
ocean parkway,K,67730,Abraham Lincoln High School,2021
palmetto street,K,69030,All City Leadership Secondary School,2021
park avenue,K,69230,Dr. Susan S. McKinney Secondary School of the Arts,2021
pennsylvania avenue,K,70330,East New York Family Academy,2021
pennsylvania avenue,K,70330,FDNY - Captain Vernon A. Richard High School for Fire and Life Safety,2021
pennsylvania avenue,K,70330,High School for Civil Rights,2021
pennsylvania avenue,K,70330,Performing Arts and Technology High School,2021
pennsylvania avenue,K,70330,World Academy for Total Community Health High School (WATCH),2021
pennsylvania avenue,K,70330,W. H. Maxwell Career and Technical Education High School,2021
rockaway avenue,K,73470,Brooklyn Democracy Academy,2021
rockaway avenue,K,73470,Metropolitan Diploma Plus High School,2021
rockaway parkway,K,73480,High School for Innovation in Advertising and Media,2021
rockaway parkway,K,73480,High School for Medical Professions,2021
rockaway parkway,K,73480,Urban Action Academy,2021
schermerhorn street,K,75530,Brooklyn Frontiers High School,2021
schermerhorn street,K,75530,Khalil Gibran International Academy,2021
shore boulevard,K,76930,Leon M. Goldstein High School for the Sciences,2021
shore road,K,77130,Fort Hamilton High School,2021
stuyvesant avenue,K,82930,"Brooklyn Academy of Global Finance, The",2021
tilden avenue,K,85530,It Takes a Village Academy,2021
tilden avenue,K,85530,Kurt Hahn Expeditionary Learning School,2021
tilden avenue,K,85530,Cultural Academy for the Arts and Sciences,2021
van siclen avenue,K,87130,The East New York Arts and Civics High School (T.E.A.C.H.),2021
wells street,K,90460,Transit Tech Career and Technical Education High School,2021
west 19 street,K,91330,Liberation Diploma Plus,2021
west avenue,K,92230,Rachel Carson High School for Coastal Studies,2021
willoughby avenue,K,93230,Brooklyn Community Arts & Media High School (BCAM),2021
willoughby avenue,K,93230,Brooklyn High School for Leadership and Community Service,2021
28 street,Q,07640,Energy Tech High School,2021
30 place,Q,07850,"Robert F. Wagner, Jr. Secondary School for Arts and Technology",2021
31 avenue,Q,07990,William Cullen Bryant High School,2021
35 avenue,Q,08590,Queens Academy High School,2021
35 avenue,Q,08590,Frank Sinatra School of the Arts High School,2021
36 avenue,Q,08690,Baccalaureate School for Global Education,2021
36 street,Q,08740,Aviation Career & Technical Education High School,2021
41 avenue,Q,09540,Newcomers High School,2021
41 avenue,Q,09540,Academy of American Studies,2021
44 road,Q,10040,Information Technology High School,2021
47 avenue,Q,10440,Queens Technical High School,2021
51 avenue,Q,10890,Academy for Careers in Television and Film (ACTV),2021
74 street,Q,15640,Maspeth High School,2021
76 road,Q,15940,"Queens School of Inquiry, The",2021
77 road,Q,16090,North Queens Community High School,2021
84 avenue,Q,17040,Thomas A. Edison Career and Technical Education High School,2021
87 road,Q,17690,"Young Women's Leadership School, Queens (TYWLS)",2021
90 street,Q,18240,International High School for Health Sciences,2021
90 street,Q,18240,Newtown High School,2021
91 avenue,Q,18290,Cambria Heights Academy,2021
94 street,Q,18740,Civic Leadership Academy,2021
94 street,Q,18740,Pan American International High School,2021
104 street,Q,19740,"High School for Construction Trades, Engineering and Architecture",2021
110 street,Q,20390,Forest Hills High School,2021
114 street,Q,20740,Richmond Hill High School,2021
117 street,Q,21040,Epic High School - North,2021
159 street,Q,23940,Queens High School for the Sciences at York College,2021
167 street,Q,24390,York Early College Academy,2021
192 street,Q,25440,World Journalism Preparatory: A College Board School,2021
204 street,Q,26040,Pathways College Preparatory School: A College Board School,2021
223 street,Q,26990,Benjamin N. Cardozo High School,2021
baisley boulevard,Q,29090,August Martin High School,2021
barclay avenue,Q,29290,Flushing International High School,2021
bay 25 street,Q,29569,Frederick Douglass Academy VI High School,2021
bay 25 street,Q,29569,"Queens High School for Information, Research, and Technology",2021
bay 25 street,Q,29569,Academy of Medical Technology: A College Board School,2021
beach 104 street,Q,33610,Scholars' Academy,2021
beach channel drive,Q,35290,Channel View School for Research,2021
beach channel drive,Q,35290,Rockaway Park High School for Environmental Sustainability,2021
beach channel drive,Q,35290,Rockaway Collegiate High School,2021
broadway,Q,37290,Long Island City High School,2021
colden street,Q,39490,East-West School of International Studies,2021
corporal kennedy street,Q,40190,Bayside High School,2021
goethals avenue,Q,47090,Queens Gateway to Health Sciences Secondary School,2021
gothic drive,Q,47195,Queens Collegiate: A College Board School,2021
gothic drive,Q,47195,Hillside Arts & Letters Academy,2021
gothic drive,Q,47195,High School for Community Leadership,2021
gothic drive,Q,47195,Jamaica Gateway to the Sciences,2021
guy r brewer boulevard,Q,57190,High School for Law Enforcement and Public Safety,2021
highland avenue,Q,49490,Hillcrest High School,2021
hillside avenue,Q,49690,Business Technology Early College High School (BTECH),2021
hillside avenue,Q,49690,Martin Van Buren High School,2021
himrod street,Q,49790,Grover Cleveland High School,2021
lafayette street,Q,52510,Robert H. Goddard High School of Communication Arts and Technology,2021
linden boulevard,Q,53890,Eagle Academy for Young Men III,2021
main street,Q,54580,John Bowne High School,2021
melbourne avenue,Q,55390,Townsend Harris High School,2021
metropolitan avenue,Q,55690,Metropolitan Expeditionary Learning School,2021
metropolitan avenue,Q,55690,Queens Metropolitan High School,2021
newtown avenue,Q,57390,"Young Women's Leadership School, Astoria (TYWLS)",2021
parsons boulevard,Q,58590,Robert F. Kennedy Community High School,2021
rockaway boulevard,Q,60810,Epic High School - South,2021
rockaway boulevard,Q,60810,John Adams High School,2021
springfield boulevard,Q,63290,Queens Preparatory Academy,2021
springfield boulevard,Q,63290,Excelsior Preparatory High School,2021
springfield boulevard,Q,63290,George Washington Carver High School for the Sciences,2021
springfield boulevard,Q,63290,Preparatory Academy for Writers: A College Board School,2021
thomson avenue,Q,65120,Academy of Finance and Enterprise,2021
thomson avenue,Q,65120,High School of Applied Communication,2021
thomson avenue,Q,65120,Bard High School Early College Queens,2021
union street,Q,65490,Veritas Academy,2021
union street,Q,65490,Queens High School for Language Studies,2021
union street,Q,65490,Flushing High School,2021
utopia parkway,Q,65690,Francis Lewis High School,2021
van dam street,Q,65810,Middle College High School at LaGuardia Community College,2021
van dam street,Q,65810,International High School at LaGuardia Community College,2021
clawson street,R,23100,Staten Island Technical High School,2021
essex drive,R,27675,CSI High School for International Studies,2021
essex drive,R,27675,Gaynor McCown Expeditionary Learning School,2021
hamilton avenue,R,31400,Curtis High School,2021
luten avenue,R,37280,Tottenville High School,2021
manor road,R,37850,Susan E. Wagner High School,2021
new dorp lane,R,39800,New Dorp High School,2021
ocean terrace,R,41320,"Michael J. Petrides School, The",2021
st josephs avenue,R,48985,Port Richmond High School,2021
st marks place,R,49100,Ralph R. McKee Career and Technical Education High School,2021
warren street,R,54270,"Eagle Academy for Young Men of Staten Island, The",2021
7 avenue,NY,10610,Frederick Douglass Academy,2021
10 avenue,NY,11010,Independence High School,2021
academy street,NY,11310,Inwood Early College for Health and Information Technologies,2021
academy street,NY,11310,High School for Excellence and Innovation,2021
amsterdam avenue,NY,11710,"Maxine Greene High School for Imaginative Inquiry, The",2021
amsterdam avenue,NY,11710,"Urban Assembly School for Media Studies, The",2021
amsterdam avenue,NY,11710,Fiorello H. LaGuardia High School of Music & Art and Performing Arts,2021
amsterdam avenue,NY,11710,"High School for Law, Advocacy and Community Justice",2021
amsterdam avenue,NY,11710,High School of Arts and Technology,2021
amsterdam avenue,NY,11710,Manhattan / Hunter Science High School,2021
amsterdam avenue,NY,11710,Special Music School,2021
astor place,NY,11820,Harvey Milk High School,2021
audubon avenue,NY,12010,"College Academy, The",2021
audubon avenue,NY,12010,High School for Media and Communications,2021
audubon avenue,NY,12010,High School for Law and Public Service,2021
audubon avenue,NY,12010,High School for Health Careers and Sciences,2021
avenue of the americas,NY,10510,NYC iSchool,2021
avenue of the americas,NY,10510,Chelsea Career and Technical Education High School,2021
beaver street,NY,12950,Richard R. Green High School of Teaching,2021
broad street,NY,13590,Millennium High School,2021
broadway,NY,13610,"Urban Assembly School of Business for Young Women, The",2021
broadway,NY,13610,City College Academy of the Arts,2021
chambers street,NY,14710,Stuyvesant High School,2021
clarkson street,NY,15420,City-As-School,2021
columbia street,NY,15610,"New Explorations into Science, Technology and Math High School (NEST+m)",2021
convent avenue,NY,15910,"High School for Math, Science and Engineering at City College (HSMSE)",2021
east 12 street,NY,17230,East Side Community School,2021
east 15 street,NY,17290,"Clinton School, The",2021
east 15 street,NY,17290,Institute for Collaborative Education (ICE),2021
east 15 street,NY,17290,High School for Health Professions and Human Services,2021
east 22 street,NY,17430,School of the Future High School,2021
east 23 street,NY,17450,47 The American Sign Language and English Secondary School,2021
east 25 street,NY,17490,Baruch College Campus High School,2021
east 33 street,NY,17650,Manhattan Academy for Arts & Language,2021
east 33 street,NY,17650,Murray Hill Academy,2021
east 33 street,NY,17650,Unity Center for Urban Technologies,2021
east 56 street,NY,18110,Art and Design High School,2021
east 67 street,NY,18330,Vanguard High School,2021
east 67 street,NY,18330,Manhattan International High School,2021
east 67 street,NY,18330,Talent Unlimited High School,2021
east 76 street,NY,18510,Eleanor Roosevelt High School,2021
east 96 street,NY,18890,Life Sciences Secondary School,2021
east 105 street,NY,19070,Park East High School,2021
east 106 street,NY,19090,Young Women's Leadership School (TYWLS),2021
east 109 street,NY,19150,Esperanza Preparatory Academy,2021
east houston street,NY,19890,Bard High School Early College,2021
edgecombe avenue,NY,19990,Eagle Academy for Young Men of Harlem,2021
edgecombe avenue,NY,19990,Mott Hall High School,2021
forsyth street,NY,20640,Forsyth Satellite Academy,2021
grand street,NY,21690,Essex Street Academy,2021
grand street,NY,21690,"Urban Assembly Academy of Government and Law, The",2021
grand street,NY,21690,Lower Manhattan Arts Academy,2021
grand street,NY,21690,New Design High School,2021
grand street,NY,21690,High School for Dual Language and Asian Studies,2021
henry street,NY,22690,Orchard Collegiate Academy,2021
hester street,NY,22890,Pace High School,2021
hester street,NY,22890,Emma Lazarus High School for English Language Scholars,2021
irving place,NY,23390,Gramercy Arts High School,2021
irving place,NY,23390,"High School for Language and Diplomacy, The",2021
irving place,NY,23390,International High School at Union Square,2021
irving place,NY,23390,Union Square Academy for Health Sciences,2021
irving place,NY,23390,Academy for Software Engineering (AFSE),2021
lexington avenue,NY,24890,"Heritage School, The",2021
madison avenue,NY,25390,Central Park East High School,2021
madison avenue,NY,25390,"Urban Assembly School for Global Commerce, The",2021
monroe street,NY,26390,University Neighborhood High School,2021
pearl street,NY,28490,"Urban Assembly School for Emergency Management, The",2021
pearl street,NY,28490,Manhattan Early College School for Advertising,2021
pearl street,NY,28490,Urban Assembly Maker Academy,2021
pearl street,NY,28490,Murry Bergtraum High School for Business Careers,2021
pleasant avenue,NY,29090,Manhattan Center for Science and Mathematics,2021
short avenue,NY,30520,Urban Assembly New York Harbor School,2021
trinity place,NY,32615,Leadership and Public Service High School,2021
trinity place,NY,32615,High School of Economics and Finance,2021
west 14 street,NY,34050,Harvest Collegiate High School,2021
west 17 street,NY,34110,N.Y.C. Lab School for Collaborative Studies,2021
west 17 street,NY,34110,N.Y.C. Museum School,2021
west 18 street,NY,34130,"James Baldwin School, The",2021
west 18 street,NY,34130,Manhattan Business Academy,2021
west 18 street,NY,34130,Landmark High School,2021
west 18 street,NY,34130,Quest to Learn,2021
west 18 street,NY,34130,Hudson High School of Learning Technologies,2021
west 18 street,NY,34130,Humanities Preparatory Academy,2021
west 22 street,NY,34210,Manhattan Village Academy,2021
west 24 street,NY,34250,"High School of Fashion Industries, The",2021
west 43 street,NY,34630,Repertory Company High School for Theatre Arts,2021
west 44 street,NY,34650,Beacon High School,2021
west 46 street,NY,34690,Jacqueline Kennedy Onassis High School,2021
west 48 street,NY,34730,Professional Performing Arts High School (PPAS),2021
west 49 street,NY,34750,Stephen T. Mather Building Arts & Craftsmanship High School,2021
west 49 street,NY,34750,Business of Sports School,2021
west 49 street,NY,34750,Urban Assembly Gateway School for Technology,2021
west 50 street,NY,34770,Food and Finance High School,2021
west 50 street,NY,34770,High School of Hospitality Management,2021
west 50 street,NY,34770,"Urban Assembly School of Design and Construction, The",2021
west 50 street,NY,34770,"Facing History School, The",2021
west 50 street,NY,34770,Manhattan Bridges High School,2021
west 56 street,NY,34890,High School for Environmental Studies,2021
west 61 street,NY,34990,West End Secondary School,2021
west 84 street,NY,35450,"Urban Assembly School for Green Careers, The",2021
west 84 street,NY,35450,"Global Learning Collaborative, The",2021
west 84 street,NY,35450,Frank McCourt High School,2021
west 114 street,NY,36050,Wadleigh Secondary School for the Performing & Visual Arts,2021
west 114 street,NY,36050,Frederick Douglass Academy II Secondary School,2021
west 123 street,NY,36230,Columbia Secondary School,2021
west 129 street,NY,36350,Urban Assembly School for the Performing Arts,2021
west 135 street,NY,36470,Thurgood Marshall Academy for Learning and Social Change,2021
west 135 street,NY,36470,A. Philip Randolph Campus High School,2021
west 158 street,NY,36930,Community Health Academy of the Heights,2021
west 165 street,NY,37070,Gregorio Luperon High School for Science and Mathematics,2021
west 182 street,NY,37390,Washington Heights Expeditionary Learning School (WHEELS),2021
antin place,BX,08930,Bronx High School for the Visual Arts,2021
astor avenue,BX,09620,Collegiate Institute for Math and Science (CIMS),2021
astor avenue,BX,09620,Astor Collegiate Academy,2021
astor avenue,BX,09620,Bronxdale High School,2021
astor avenue,BX,09620,High School of Language and Innovation,2021
astor avenue,BX,09620,Pelham Preparatory Academy,2021
bathgate avenue,BX,11420,"Urban Assembly School for Applied Math and Science, The",2021
bathgate avenue,BX,11420,Mott Hall Bronx High School,2021
bathgate avenue,BX,11420,Validus Preparatory Academy,2021
baychester avenue,BX,11620,Bronx Health Sciences High School,2021
baychester avenue,BX,11620,Harry S Truman High School,2021
boston road,BX,13820,Morris Academy for Collaborative Studies,2021
boston road,BX,13820,Bronx International High School,2021
boston road,BX,13820,School for Excellence,2021
boston road,BX,13820,High School for Violin and Dance,2021
boston road,BX,13820,Explorations Academy H.S.,2021
boston road,BX,13820,Bronx Envision Academy,2021
boynton avenue,BX,14220,Pan American International High School at Monroe,2021
boynton avenue,BX,14220,"Metropolitan Soundview High School, The",2021
boynton avenue,BX,14220,High School of World Cultures,2021
brook avenue,BX,15720,International Community High School,2021
crotona avenue,BX,22320,Bronx Academy for Software Engineering (BASE),2021
crotona avenue,BX,22320,Crotona International High School,2021
crotona avenue,BX,22320,High School for Energy and Technology,2021
east 145 street,BX,26010,South Bronx Preparatory: A College Board School,2021
east 145 street,BX,26010,"Laboratory School of Finance and Technology, The",2021
east 151 street,BX,26190,Bronx Design and Construction Academy,2021
east 151 street,BX,26190,Alfred E. Smith Career and Technical Education High School,2021
east 163 street,BX,26550,"Bronx School for Law, Government and Justice",2021
east 164 street,BX,26580,Bronx Early College Academy for Teaching & Learning,2021
east 172 street,BX,26820,Bronx Collegiate Academy,2021
east 172 street,BX,26820,Dreamyard Preparatory School,2021
east 172 street,BX,26820,New Directions Secondary School,2021
east 172 street,BX,26820,Bronx High School of Business,2021
east 172 street,BX,26820,Bronx High School for Medical Science,2021
east 172 street,BX,26820,Claremont International High School,2021
east 172 street,BX,26820,Mott Hall V,2021
east 172 street,BX,26820,"Cinema School, The",2021
east 180 street,BX,27060,Wings Academy,2021
east 228 street,BX,28470,Academy for Scholarship and Entrepreneurship: A College Board School,2021
east 228 street,BX,28470,New World High School,2021
east 228 street,BX,28470,"Bronxwood Preparatory Academy, The",2021
east fordham road,BX,29220,West Bronx Academy for the Future,2021
east fordham road,BX,29220,Knowledge and Power Preparatory Academy International High School (KAPPA),2021
east fordham road,BX,29220,Belmont Preparatory High School,2021
east fordham road,BX,29220,Fordham High School for the Arts,2021
east fordham road,BX,29220,Fordham Leadership Academy,2021
east fordham road,BX,29220,Bronx High School for Law and Community Service,2021
east gun hill road,BX,29320,Bronx High School for Writing and Communication Arts,2021
east gun hill road,BX,29320,Bronx Lab School,2021
east gun hill road,BX,29320,High School of Computers and Technology,2021
east gun hill road,BX,29320,Bronx Academy of Health Careers,2021
east gun hill road,BX,29320,High School for Contemporary Arts,2021
east gun hill road,BX,29320,Bronx Aerospace High School,2021
east tremont avenue,BX,29620,Renaissance High School for Musical Theater and the Arts,2021
east tremont avenue,BX,29620,Pelham Lab High School,2021
east tremont avenue,BX,29620,Schuylerville Preparatory High School,2021
east tremont avenue,BX,29620,Bronx River High School,2021
east tremont avenue,BX,29620,Herbert H. Lehman High School,2021
east tremont avenue,BX,29620,Westchester Square Academy,2021
fulton avenue,BX,34220,Eximius College Preparatory Academy: A College Board School,2021
fulton avenue,BX,34220,Bronx Center for Science and Mathematics,2021
gerard avenue,BX,35020,Community School for Social Justice,2021
gerard avenue,BX,35020,Health Opportunities High School,2021
goulden avenue,BX,36060,High School of American Studies at Lehman College,2021
home street,BX,40520,Bronx Latin,2021
home street,BX,40520,Bronx Career and College Preparatory High School,2021
jennings street,BX,42720,Fannie Lou Hamer Freedom High School,2021
jerome avenue,BX,42820,Comprehensive Model School Project M.S. 327,2021
lafayette avenue,BX,45120,Millennium Art Academy,2021
lafayette avenue,BX,45120,Antonia Pantoja Preparatory Academy: A College Board School,2021
lafayette avenue,BX,45120,Bronx Bridges High School,2021
lafayette avenue,BX,45120,Gotham Collaborative High School,2021
lafayette avenue,BX,45120,Bronx Compass High School,2021
longwood avenue,BX,46820,Longwood Preparatory Academy,2021
macombs road,BX,48220,Academy for Language and Technology,2021
morris avenue,BX,52120,"Urban Assembly Bronx Academy of Letters, The",2021
morris avenue,BX,52120,Young Women's Leadership School of the Bronx (TYWLS),2021
reservoir avenue,BX,60820,Kingsbridge International High School,2021
reservoir avenue,BX,60820,International School for Liberal Arts,2021
reservoir avenue,BX,60820,High School for Teaching and the Professions,2021
reservoir avenue,BX,60820,"Celia Cruz Bronx High School of Music, The",2021
reservoir avenue,BX,60820,Discovery High School,2021
simpson street,BX,65020,Bronx Studio School for Writers and Artists,2021
southern boulevard,BX,65320,"H.E.R.O. High (Health, Education, and Research Occupations High School)",2021
southern boulevard,BX,65320,East Bronx Academy for the Future,2021
st anns avenue,BX,65620,Mott Haven Village Preparatory High School,2021
st anns avenue,BX,65620,University Heights Secondary School,2021
story avenue,BX,66920,Bronx Arena High School,2021
terrace view avenue,BX,67880,Bronx Engineering and Technology Academy,2021
terrace view avenue,BX,67880,Bronx School of Law and Finance,2021
terrace view avenue,BX,67880,Marble Hill High School for International Studies,2021
terrace view avenue,BX,67880,Bronx Theatre High School,2021
tibbett avenue,BX,68320,In-Tech Academy (M.S. / High School 368),2021
tinton avenue,BX,69020,School for Tourism and Hospitality,2021
webster avenue,BX,73720,Bronx Leadership Academy High School,2021
webster avenue,BX,73720,Theatre Arts Production Company School,2021
west 205 street,BX,74880,"Bronx High School of Science, The",2021
west 231 street,BX,74960,"Marie Curie School for Medicine, Nursing, and Health Professions, The",2021
west 237 street,BX,75110,Riverdale / Kingsbridge Academy (Middle School / High School 141) (RKA),2021
white plains road,BX,77150,Women's Academy of Excellence,2021
white plains road,BX,77150,"Archimedes Academy for Math, Science and Technology Applications",2021
7 avenue,K,05780,John Jay School for Law,2021
7 avenue,K,05780,Cyberarts Studio Academy,2021
7 avenue,K,05780,Park Slope Collegiate,2021
7 avenue,K,05780,Millennium Brooklyn High School,2021
16 avenue,K,06680,Urban Assembly School for Leadership and Empowerment,2021
20 avenue,K,07080,Franklin Delano Roosevelt High School,2021
21 avenue,K,07230,Brooklyn Studio Secondary School,2021
35 street,K,08330,Sunset Park High School,2021
67 street,K,09930,High School of Telecommunication Arts and Technology,2021
80 street,K,10580,New Utrecht High School,2021
adams street,K,11800,"Urban Assembly School for Law and Justice, The",2021
adams street,K,11800,Urban Assembly Institute of Math and Science for Young Women,2021
albany avenue,K,12130,Pathways in Technology Early College High School (P-TECH),2021
albany avenue,K,12130,Academy for Health Careers,2021
avenue l,K,14180,Edward R. Murrow High School,2021
avenue x,K,14780,John Dewey High School,2021
avenue x,K,14780,Origins High School,2021
avenue x,K,14780,Professional Pathways High School,2021
baltic street,K,15180,Digital Arts and Cinema Technology High School,2021
baltic street,K,15180,"Boerum Hill School for International Studies, The",2021
baltic street,K,15180,Cobble Hill School of American Studies,2021
bedford avenue,K,18630,Bedford Academy High School,2021
bedford avenue,K,18630,A-TECH High School,2021
bedford avenue,K,18630,Midwood High School,2021
bedford avenue,K,18630,James Madison High School,2021
benson avenue,K,19030,International High School at Lafayette,2021
benson avenue,K,19030,High School of Sports Management,2021
benson avenue,K,19030,Kingsborough Early College School,2021
benson avenue,K,19030,Life Academy High School for Film and Music,2021
benson avenue,K,19030,Leaders High School,2021
bergen street,K,19230,Brooklyn Collegiate: A College Board School,2021
brighton 4 road,K,21850,William E. Grady Career and Technical Education High School,2021
bristol street,K,23130,Frederick Douglass Academy VII High School,2021
bristol street,K,23130,Teachers Preparatory High School,2021
broadway,K,23230,Brooklyn High School for Law and Technology,2021
bushwick avenue,K,23930,Young Women's Leadership School of Brooklyn (TYWLS),2021
bushwick avenue,K,23930,Bushwick Leaders High School for Academic Excellence,2021
carroll street,K,24830,Medgar Evers College Preparatory School,2021
classon avenue,K,26730,International High School at Prospect Heights,2021
classon avenue,K,26730,"High School for Global Citizenship, The",2021
classon avenue,K,26730,Brooklyn Academy of Science and the Environment (BASE),2021
classon avenue,K,26730,Brooklyn School for Music & Theatre,2021
classon avenue,K,26730,Clara Barton High School,2021
clinton avenue,K,27430,Benjamin Banneker Academy,2021
coney island avenue,K,28830,Brooklyn College Academy,2021
dean street,K,31830,Brooklyn High School of the Arts,2021
dekalb avenue,K,31530,EBC High School for Public Service - Bushwick,2021
east 100 street,K,38182,Olympus Academy,2021
eastern parkway,K,38430,Aspirations Diploma Plus High School,2021
elton street,K,39230,Academy for Young Writers,2021
elton street,K,39230,Spring Creek Community School,2021
flatbush avenue,K,40930,Academy for College Preparation and Career Exploration: A College Board School,2021
flatbush avenue,K,40930,Academy of Hospitality and Tourism,2021
flatbush avenue,K,40930,High School for Youth and Community Development at Erasmus,2021
flatbush avenue,K,40930,High School for Service & Learning at Erasmus,2021
flatbush avenue,K,40930,"Science, Technology and Research Early College High School at Erasmus (STAR)",2021
flatbush avenue extension,K,40830,Urban Assembly School for Music and Art,2021
flatbush avenue extension,K,40830,"Science Skills Center High School for Science, Technology and the Creative Arts",2021
flatbush avenue extension,K,40830,Brooklyn International High School,2021
flatlands avenue,K,41030,Brooklyn Community High School for Excellence and Equity,2021
flatlands avenue,K,41030,Brooklyn Theatre Arts High School,2021
flatlands avenue,K,41030,Victory Collegiate High School,2021
flatlands avenue,K,41030,Academy for Conservation and the Environment,2021
fountain avenue,K,41830,School for Classics High School,2021
fulton street,K,42730,Boys and Girls High School,2021
fulton street,K,42730,Nelson Mandela High School,2021
graham avenue,K,44930,"Brooklyn Latin School, The",2021
graham avenue,K,44930,"Williamsburg High School of Art and Technology, The",2021
graham avenue,K,44930,Lyons Community School,2021
grand avenue,K,45030,Gotham Professional Arts Academy,2021
grand street,K,45130,PROGRESS High School for Professional Careers,2021
grand street,K,45130,East Williamsburg Scholars Academy,2021
grand street,K,45130,"High School for Enterprise, Business and Technology, The",2021
henry street,K,48830,Brooklyn Collaborative Studies,2021
herkimer street,K,49130,Eagle Academy for Young Men II,2021
heyward street,K,49530,Juan Morel Campos Secondary School,2021
hooper street,K,50530,El Puente Academy for Peace and Justice,2021
irving avenue,K,52130,"Brooklyn School for Math and Research, The",2021
irving avenue,K,52130,Academy for Excellence in Leadership,2021
irving avenue,K,52130,"Brooklyn School for Social Justice, The",2021
irving avenue,K,52130,"Academy of Urban Planning and Engineering, The",2021
jamaica avenue,K,52730,Multicultural High School,2021
jamaica avenue,K,52730,Academy of Innovative Technology,2021
jamaica avenue,K,52730,Brooklyn Lab School,2021
jamaica avenue,K,52730,Cypress Hills Collegiate Preparatory School,2021
jamaica avenue,K,52730,"Urban Assembly School for Collaborative Healthcare, The",2021
kingston avenue,K,54070,"School for Human Rights, The",2021
kingston avenue,K,54070,High School for Public Service: Heroes of Tomorrow,2021
kingston avenue,K,54070,Brooklyn Institute for Liberal Arts (BILA),2021
marcy avenue,K,58730,Brooklyn Academy High School,2021
north 6 street,K,66230,Brooklyn Preparatory High School,2021
north 6 street,K,66230,Williamsburg High School for Architecture and Design,2021
north 6 street,K,66230,Williamsburg Preparatory School,2021
ocean parkway,K,67730,Abraham Lincoln High School,2021
palmetto street,K,69030,All City Leadership Secondary School,2021
park avenue,K,69230,Dr. Susan S. McKinney Secondary School of the Arts,2021
pennsylvania avenue,K,70330,East New York Family Academy,2021
pennsylvania avenue,K,70330,FDNY - Captain Vernon A. Richard High School for Fire and Life Safety,2021
pennsylvania avenue,K,70330,High School for Civil Rights,2021
pennsylvania avenue,K,70330,Performing Arts and Technology High School,2021
pennsylvania avenue,K,70330,World Academy for Total Community Health High School (WATCH),2021
pennsylvania avenue,K,70330,W. H. Maxwell Career and Technical Education High School,2021
rockaway avenue,K,73470,Brooklyn Democracy Academy,2021
rockaway avenue,K,73470,Metropolitan Diploma Plus High School,2021
rockaway parkway,K,73480,High School for Innovation in Advertising and Media,2021
rockaway parkway,K,73480,High School for Medical Professions,2021
rockaway parkway,K,73480,Urban Action Academy,2021
schermerhorn street,K,75530,Brooklyn Frontiers High School,2021
schermerhorn street,K,75530,Khalil Gibran International Academy,2021
shore boulevard,K,76930,Leon M. Goldstein High School for the Sciences,2021
shore road,K,77130,Fort Hamilton High School,2021
stuyvesant avenue,K,82930,"Brooklyn Academy of Global Finance, The",2021
tilden avenue,K,85530,It Takes a Village Academy,2021
tilden avenue,K,85530,Kurt Hahn Expeditionary Learning School,2021
tilden avenue,K,85530,Cultural Academy for the Arts and Sciences,2021
van siclen avenue,K,87130,The East New York Arts and Civics High School (T.E.A.C.H.),2021
wells street,K,90460,Transit Tech Career and Technical Education High School,2021
west 19 street,K,91330,Liberation Diploma Plus,2021
west avenue,K,92230,Rachel Carson High School for Coastal Studies,2021
willoughby avenue,K,93230,Brooklyn Community Arts & Media High School (BCAM),2021
willoughby avenue,K,93230,Brooklyn High School for Leadership and Community Service,2021
28 street,Q,07640,Energy Tech High School,2021
30 place,Q,07850,"Robert F. Wagner, Jr. Secondary School for Arts and Technology",2021
31 avenue,Q,07990,William Cullen Bryant High School,2021
35 avenue,Q,08590,Queens Academy High School,2021
35 avenue,Q,08590,Frank Sinatra School of the Arts High School,2021
36 avenue,Q,08690,Baccalaureate School for Global Education,2021
36 street,Q,08740,Aviation Career & Technical Education High School,2021
41 avenue,Q,09540,Newcomers High School,2021
41 avenue,Q,09540,Academy of American Studies,2021
44 road,Q,10040,Information Technology High School,2021
47 avenue,Q,10440,Queens Technical High School,2021
51 avenue,Q,10890,Academy for Careers in Television and Film (ACTV),2021
74 street,Q,15640,Maspeth High School,2021
76 road,Q,15940,"Queens School of Inquiry, The",2021
77 road,Q,16090,North Queens Community High School,2021
84 avenue,Q,17040,Thomas A. Edison Career and Technical Education High School,2021
87 road,Q,17690,"Young Women's Leadership School, Queens (TYWLS)",2021
90 street,Q,18240,International High School for Health Sciences,2021
90 street,Q,18240,Newtown High School,2021
91 avenue,Q,18290,Cambria Heights Academy,2021
94 street,Q,18740,Civic Leadership Academy,2021
94 street,Q,18740,Pan American International High School,2021
104 street,Q,19740,"High School for Construction Trades, Engineering and Architecture",2021
110 street,Q,20390,Forest Hills High School,2021
114 street,Q,20740,Richmond Hill High School,2021
117 street,Q,21040,Epic High School - North,2021
159 street,Q,23940,Queens High School for the Sciences at York College,2021
167 street,Q,24390,York Early College Academy,2021
192 street,Q,25440,World Journalism Preparatory: A College Board School,2021
204 street,Q,26040,Pathways College Preparatory School: A College Board School,2021
223 street,Q,26990,Benjamin N. Cardozo High School,2021
baisley boulevard,Q,29090,August Martin High School,2021
barclay avenue,Q,29290,Flushing International High School,2021
bay 25 street,Q,29569,Frederick Douglass Academy VI High School,2021
bay 25 street,Q,29569,"Queens High School for Information, Research, and Technology",2021
bay 25 street,Q,29569,Academy of Medical Technology: A College Board School,2021
beach 104 street,Q,33610,Scholars' Academy,2021
beach channel drive,Q,35290,Channel View School for Research,2021
beach channel drive,Q,35290,Rockaway Park High School for Environmental Sustainability,2021
beach channel drive,Q,35290,Rockaway Collegiate High School,2021
broadway,Q,37290,Long Island City High School,2021
colden street,Q,39490,East-West School of International Studies,2021
corporal kennedy street,Q,40190,Bayside High School,2021
goethals avenue,Q,47090,Queens Gateway to Health Sciences Secondary School,2021
gothic drive,Q,47195,Queens Collegiate: A College Board School,2021
gothic drive,Q,47195,Hillside Arts & Letters Academy,2021
gothic drive,Q,47195,High School for Community Leadership,2021
gothic drive,Q,47195,Jamaica Gateway to the Sciences,2021
guy r brewer boulevard,Q,57190,High School for Law Enforcement and Public Safety,2021
highland avenue,Q,49490,Hillcrest High School,2021
hillside avenue,Q,49690,Business Technology Early College High School (BTECH),2021
hillside avenue,Q,49690,Martin Van Buren High School,2021
himrod street,Q,49790,Grover Cleveland High School,2021
lafayette street,Q,52510,Robert H. Goddard High School of Communication Arts and Technology,2021
linden boulevard,Q,53890,Eagle Academy for Young Men III,2021
main street,Q,54580,John Bowne High School,2021
melbourne avenue,Q,55390,Townsend Harris High School,2021
metropolitan avenue,Q,55690,Metropolitan Expeditionary Learning School,2021
metropolitan avenue,Q,55690,Queens Metropolitan High School,2021
newtown avenue,Q,57390,"Young Women's Leadership School, Astoria (TYWLS)",2021
parsons boulevard,Q,58590,Robert F. Kennedy Community High School,2021
rockaway boulevard,Q,60810,Epic High School - South,2021
rockaway boulevard,Q,60810,John Adams High School,2021
springfield boulevard,Q,63290,Queens Preparatory Academy,2021
springfield boulevard,Q,63290,Excelsior Preparatory High School,2021
springfield boulevard,Q,63290,George Washington Carver High School for the Sciences,2021
springfield boulevard,Q,63290,Preparatory Academy for Writers: A College Board School,2021
thomson avenue,Q,65120,Academy of Finance and Enterprise,2021
thomson avenue,Q,65120,High School of Applied Communication,2021
thomson avenue,Q,65120,Bard High School Early College Queens,2021
union street,Q,65490,Veritas Academy,2021
union street,Q,65490,Queens High School for Language Studies,2021
union street,Q,65490,Flushing High School,2021
utopia parkway,Q,65690,Francis Lewis High School,2021
van dam street,Q,65810,Middle College High School at LaGuardia Community College,2021
van dam street,Q,65810,International High School at LaGuardia Community College,2021
clawson street,R,23100,Staten Island Technical High School,2021
essex drive,R,27675,CSI High School for International Studies,2021
essex drive,R,27675,Gaynor McCown Expeditionary Learning School,2021
hamilton avenue,R,31400,Curtis High School,2021
luten avenue,R,37280,Tottenville High School,2021
manor road,R,37850,Susan E. Wagner High School,2021
new dorp lane,R,39800,New Dorp High School,2021
ocean terrace,R,41320,"Michael J. Petrides School, The",2021
st josephs avenue,R,48985,Port Richmond High School,2021
st marks place,R,49100,Ralph R. McKee Career and Technical Education High School,2021
warren street,R,54270,"Eagle Academy for Young Men of Staten Island, The",2021
1 avenue,NY,10010,Coalition School for Social Change,2016
7 avenue,NY,10610,Frederick Douglass Academy,2016
academy street,NY,11310,Inwood Early College for Health and Information Technologies,2016
academy street,NY,11310,High School for Excellence and Innovation,2016
amsterdam avenue,NY,11710,"High School for Arts, Imagination and Inquiry",2016
amsterdam avenue,NY,11710,"Urban Assembly School for Media Studies, The",2016
amsterdam avenue,NY,11710,Fiorello H. LaGuardia High School of Music & Art and Performing Arts,2016
amsterdam avenue,NY,11710,"High School for Law, Advocacy and Community Justice",2016
amsterdam avenue,NY,11710,High School of Arts and Technology,2016
amsterdam avenue,NY,11710,Manhattan / Hunter Science High School,2016
audubon avenue,NY,12010,The College Academy,2016
audubon avenue,NY,12010,High School for Media and Communications,2016
audubon avenue,NY,12010,High School for Law and Public Service,2016
audubon avenue,NY,12010,High School for Health Careers and Sciences,2016
avenue of the americas,NY,10510,NYC iSchool,2016
avenue of the americas,NY,10510,Chelsea Career and Technical Education High School,2016
broad street,NY,13590,Millennium High School,2016
broadway,NY,13610,"Urban Assembly School of Business for Young Women, the",2016
broadway,NY,13610,Richard R. Green High School of Teaching,2016
broadway,NY,13610,City College Academy of the Arts,2016
chambers street,NY,14710,Stuyvesant High School,2016
columbia street,NY,15610,"New Explorations into Science, Technology and Math High School",2016
east 12 street,NY,17230,East Side Community School,2016
east 15 street,NY,17290,Institute for Collaborative Education,2016
east 15 street,NY,17290,High School for Health Professions and Human Services,2016
east 22 street,NY,17430,School of the Future High School,2016
east 23 street,NY,17450,47 The American Sign Language and English Secondary School,2016
east 25 street,NY,17490,Baruch College Campus High School,2016
east 33 street,NY,17650,MANHATTAN ACADEMY FOR ARTS & LANGUAGE,2016
east 33 street,NY,17650,Murray Hill Academy,2016
east 33 street,NY,17650,Unity Center for Urban Technologies,2016
east 56 street,NY,18110,Art and Design High School,2016
east 67 street,NY,18330,Vanguard High School,2016
east 67 street,NY,18330,Manhattan International High School,2016
east 67 street,NY,18330,Talent Unlimited High School,2016
east 76 street,NY,18510,Eleanor Roosevelt High School,2016
east 96 street,NY,18890,Life Sciences Secondary School,2016
east 105 street,NY,19070,Park East High School,2016
east 106 street,NY,19090,Young Women's Leadership School,2016
east 109 street,NY,19150,ESPERANZA PREPARATORY ACADEMY,2016
east houston street,NY,19890,Bard High School Early College,2016
edgecombe avenue,NY,19990,Eagle Academy for Young Men of Harlem,2016
edgecombe avenue,NY,19990,Mott Hall High School,2016
grand street,NY,21690,Essex Street Academy,2016
grand street,NY,21690,"Urban Assembly Academy of Government and Law, The",2016
grand street,NY,21690,Lower Manhattan Arts Academy,2016
grand street,NY,21690,New Design High School,2016
grand street,NY,21690,High School for Dual Language and Asian Studies,2016
henry street,NY,22690,Henry Street School for International Studies,2016
hester street,NY,22890,Pace High School,2016
irving place,NY,23390,Gramercy Arts High School,2016
irving place,NY,23390,THE HIGH SCHOOL FOR LANGUAGE AND DIPLOMACY,2016
irving place,NY,23390,International High School at Union Square,2016
irving place,NY,23390,Union Square Academy for Health Sciences,2016
irving place,NY,23390,Academy for Software Engineering,2016
lexington avenue,NY,24890,"Heritage School, The",2016
madison avenue,NY,25390,Central Park East High School,2016
madison avenue,NY,25390,The Urban Assembly School for Global Commerce,2016
monroe street,NY,26390,University Neighborhood High School,2016
pearl street,NY,28490,The Urban Assembly School for Emergency Management,2016
pearl street,NY,28490,Manhattan Early College School for Advertising,2016
pearl street,NY,28490,Urban Assembly Maker Academy,2016
pearl street,NY,28490,Murry Bergtraum High School for Business Careers,2016
pleasant avenue,NY,29090,Manhattan Center for Science and Mathematics,2016
stanton street,NY,31490,Marta Valle High School,2016
trinity place,NY,32615,Leadership and Public Service High School,2016
trinity place,NY,32615,High School of Economics and Finance,2016
west 14 street,NY,34050,Harvest Collegiate High School,2016
west 17 street,NY,34110,N.Y.C. Lab School for Collaborative Studies,2016
west 17 street,NY,34110,N.Y.C. Museum School,2016
west 18 street,NY,34130,MANHATTAN BUSINESS ACADEMY,2016
west 18 street,NY,34130,Landmark High School,2016
west 18 street,NY,34130,Quest to Learn,2016
west 18 street,NY,34130,Hudson High School of Learning Technologies,2016
west 18 street,NY,34130,Humanities Preparatory Academy,2016
west 22 street,NY,34210,Manhattan Village Academy,2016
west 24 street,NY,34250,The High School of Fashion Industries,2016
west 33 street,NY,34430,M.S. 260 Clinton School Writers & Artists,2016
west 43 street,NY,34630,Repertory Company High School for Theatre Arts,2016
west 46 street,NY,34690,Jacqueline Kennedy Onassis High School,2016
west 48 street,NY,34730,Professional Performing Arts High School,2016
west 49 street,NY,34750,Stephen T. Mather Building Arts & Craftsmanship High School,2016
west 49 street,NY,34750,BUSINESS OF SPORTS SCHOOL,2016
west 49 street,NY,34750,Urban Assembly Gateway School for Technology,2016
west 50 street,NY,34770,Food and Finance High School,2016
west 50 street,NY,34770,High School of Hospitality Management,2016
west 50 street,NY,34770,"Urban Assembly School of Design and Construction, The",2016
west 50 street,NY,34770,"Facing History School, The",2016
west 50 street,NY,34770,Manhattan Bridges High School,2016
west 56 street,NY,34890,High School for Environmental Studies,2016
west 61 street,NY,34990,Beacon High School,2016
west 67 street,NY,35110,Special Music School,2016
west 84 street,NY,35450,The Urban Assembly School for Green Careers,2016
west 84 street,NY,35450,The Global Learning Collaborative,2016
west 84 street,NY,35450,FRANK McCOURT HIGH SCHOOL,2016
west 114 street,NY,36050,Wadleigh Secondary School for the Performing & Visual Arts,2016
west 114 street,NY,36050,Frederick Douglass Academy II Secondary School,2016
west 123 street,NY,36230,Columbia Secondary School,2016
west 129 street,NY,36350,Academy for Social Action: A College Board School,2016
west 129 street,NY,36350,Urban Assembly School for the Performing Arts,2016
west 135 street,NY,36470,Thurgood Marshall Academy for Learning and Social Change,2016
west 135 street,NY,36470,A. Philip Randolph Campus High School,2016
west 158 street,NY,36930,Community Health Academy of the Heights,2016
west 182 street,NY,37390,Washington Heights Expeditionary Learning School,2016
astor avenue,BX,09620,Collegiate Institute for Math and Science,2016
astor avenue,BX,09620,Astor Collegiate Academy,2016
astor avenue,BX,09620,Bronxdale High School,2016
astor avenue,BX,09620,High School of Language and Innovation,2016
astor avenue,BX,09620,Pelham Preparatory Academy,2016
bathgate avenue,BX,11420,"Urban Assembly School for Applied Math and Science, The",2016
bathgate avenue,BX,11420,Mott Hall Bronx High School,2016
bathgate avenue,BX,11420,Validus Preparatory Academy: An Expeditionary Learning School,2016
baychester avenue,BX,11620,Bronx Health Sciences High School,2016
baychester avenue,BX,11620,Harry S Truman High School,2016
boston road,BX,13820,Morris Academy for Collaborative Studies,2016
boston road,BX,13820,Bronx International High School,2016
boston road,BX,13820,School for Excellence,2016
boston road,BX,13820,High School for Violin and Dance,2016
boston road,BX,13820,Explorations Academy,2016
boston road,BX,13820,Bronx Envision Academy,2016
boynton avenue,BX,14220,Pan American International High School at Monroe,2016
boynton avenue,BX,14220,The Metropolitan Soundview High School,2016
boynton avenue,BX,14220,High School of World Cultures,2016
boynton avenue,BX,14220,Monroe Academy for Visual Arts & Design,2016
brook avenue,BX,15720,International Community High School,2016
crotona avenue,BX,22320,Bronx Academy for Software Engineering (BASE),2016
crotona avenue,BX,22320,Crotona International High School,2016
crotona avenue,BX,22320,High School for Energy and Technology,2016
east 145 street,BX,26010,South Bronx Preparatory: A College Board School,2016
east 145 street,BX,26010,M.S. 223 The Laboratory School of Finance and Technology,2016
east 151 street,BX,26190,Bronx Design and Construction Academy,2016
east 151 street,BX,26190,Alfred E. Smith Career and Technical Education High School,2016
east 163 street,BX,26550,"Bronx School for Law, Government and Justice",2016
east 164 street,BX,26580,Bronx Early College Academy for Teaching & Learning,2016
east 172 street,BX,26820,Bronx Collegiate Academy,2016
east 172 street,BX,26820,DreamYard Preparatory School,2016
east 172 street,BX,26820,New Directions Secondary School,2016
east 172 street,BX,26820,Bronx High School of Business,2016
east 172 street,BX,26820,Bronx High School for Medical Science,2016
east 172 street,BX,26820,Claremont International HS,2016
east 172 street,BX,26820,Mott Hall V,2016
east 172 street,BX,26820,THE CINEMA SCHOOL,2016
east 180 street,BX,27060,Wings Academy,2016
east 228 street,BX,28470,Academy for Scholarship and Entrepreneurship: A College Board School,2016
east 228 street,BX,28470,New World High School,2016
east 228 street,BX,28470,The Bronxwood Preparatory Academy,2016
east fordham road,BX,29220,West Bronx Academy for the Future,2016
east fordham road,BX,29220,Knowledge and Power Preparatory Academy International High School (Kappa),2016
east fordham road,BX,29220,Belmont Preparatory High School,2016
east fordham road,BX,29220,Fordham High School for the Arts,2016
east fordham road,BX,29220,Fordham Leadership Academy for Business and Technology,2016
east fordham road,BX,29220,Bronx High School for Law and Community Service,2016
east gun hill road,BX,29320,Bronx High School for Writing and Communication Arts,2016
east gun hill road,BX,29320,Bronx Lab School,2016
east gun hill road,BX,29320,High School of Computers and Technology,2016
east gun hill road,BX,29320,Bronx Academy of Health Careers,2016
east gun hill road,BX,29320,High School for Contemporary Arts,2016
east gun hill road,BX,29320,Bronx Aerospace High School,2016
east tremont avenue,BX,29620,Pelham Lab High School,2016
east tremont avenue,BX,29620,Renaissance High School for Musical Theater & Technology,2016
east tremont avenue,BX,29620,Schuylerville Preparatory High School,2016
east tremont avenue,BX,29620,Bronx River High School,2016
east tremont avenue,BX,29620,Herbert H. Lehman High School,2016
east tremont avenue,BX,29620,Westchester Square Academy,2016
fulton avenue,BX,34220,Eximius College Preparatory Academy: A College Board School,2016
fulton avenue,BX,34220,Bronx Center for Science and Mathematics,2016
fulton avenue,BX,34220,Leadership Institute,2016
gerard avenue,BX,35020,Community School for Social Justice,2016
gerard avenue,BX,35020,Health Opportunities High School,2016
goulden avenue,BX,36060,High School of American Studies at Lehman College,2016
home street,BX,40520,Bronx Career and College Preparatory High School,2016
home street,BX,40520,Bronx Latin,2016
jackson avenue,BX,42420,Foreign Language Academy of Global Studies,2016
jennings street,BX,42720,Fannie Lou Hamer Freedom High School,2016
jerome avenue,BX,42820,Comprehensive Model School Project M.S. 327,2016
lafayette avenue,BX,45120,Pablo Neruda Academy,2016
lafayette avenue,BX,45120,Millennium Art Academy,2016
lafayette avenue,BX,45120,Antonia Pantoja Preparatory Academy: A College Board School,2016
lafayette avenue,BX,45120,BRONX BRIDGES HIGH SCHOOL,2016
lafayette avenue,BX,45120,Bronx Guild,2016
lafayette avenue,BX,45120,Bronx Compass High School,2016
longwood avenue,BX,46820,Holcombe L. Rucker School of Community Research,2016
longwood avenue,BX,46820,Banana Kelly High School,2016
macombs road,BX,48220,Academy for Language and Technology,2016
mohegan avenue,BX,51520,Urban Assembly School for Wildlife Conservation,2016
morris avenue,BX,52120,The Urban Assembly Bronx Academy of Letters,2016
morris avenue,BX,52120,Young Women's Leadership School of the Bronx,2016
reservoir avenue,BX,60820,Kingsbridge International High School,2016
reservoir avenue,BX,60820,International School for Liberal Arts,2016
reservoir avenue,BX,60820,High School for Teaching and the Professions,2016
reservoir avenue,BX,60820,"Celia Cruz Bronx High School of Music, The",2016
reservoir avenue,BX,60820,Discovery High School,2016
simpson street,BX,65020,Bronx Studio School for Writers and Artists,2016
southern boulevard,BX,65320,East Bronx Academy for the Future,2016
st anns avenue,BX,65620,Mott Haven Village Preparatory High School,2016
st anns avenue,BX,65620,University Heights Secondary School,2016
story avenue,BX,66920,"Felisa Rincon de Gautier Institute for Law and Public Policy, The",2016
terrace view avenue,BX,67880,Bronx Engineering and Technology Academy,2016
terrace view avenue,BX,67880,Bronx School of Law and Finance,2016
terrace view avenue,BX,67880,Marble Hill High School for International Studies,2016
terrace view avenue,BX,67880,Bronx Theatre High School,2016
tibbett avenue,BX,68320,In-Tech Academy (M.S. / High School 368),2016
tinton avenue,BX,69020,School for Tourism and Hospitality,2016
webster avenue,BX,73720,Bronx Leadership Academy High School,2016
webster avenue,BX,73720,Theatre Arts Production Company School,2016
west 205 street,BX,74880,Bronx High School of Science,2016
west 231 street,BX,74960,"The Marie Curie School for Medicine, Nursing, and Health Professions",2016
west 237 street,BX,75110,Riverdale / Kingsbridge Academy (Middle School / High School 141),2016
white plains road,BX,77150,Women's Academy of Excellence,2016
white plains road,BX,77150,"Archimedes Academy for Math, Science and Technology Applications",2016
7 avenue,K,05780,Secondary School for Law,2016
7 avenue,K,05780,Secondary School for Journalism,2016
7 avenue,K,05780,Park Slope Collegiate,2016
7 avenue,K,05780,Millennium Brooklyn HS,2016
16 avenue,K,06680,Urban Assembly School for Criminal Justice,2016
20 avenue,K,07080,Franklin Delano Roosevelt High School,2016
21 avenue,K,07230,Brooklyn Studio Secondary School,2016
35 street,K,08330,Sunset Park High School,2016
67 street,K,09930,High School of Telecommunication Arts and Technology,2016
80 street,K,10580,New Utrecht High School,2016
adams street,K,11800,The Urban Assembly School for Law and Justice,2016
adams street,K,11800,Urban Assembly Institute of Math and Science for Young Women,2016
albany avenue,K,12130,Pathways in Technology Early College High School (P-Tech),2016
albany avenue,K,12130,Academy for Health Careers,2016
avenue l,K,14180,Edward R. Murrow High School,2016
avenue x,K,14780,John Dewey High School,2016
avenue x,K,14780,Origins High School,2016
baltic street,K,15180,Brooklyn School for Global Studies,2016
baltic street,K,15180,School for International Studies,2016
baltic street,K,15180,Cobble Hill School of American Studies,2016
bedford avenue,K,18630,Bedford Academy High School,2016
bedford avenue,K,18630,Automotive High School,2016
bedford avenue,K,18630,Frances Perkins Academy,2016
bedford avenue,K,18630,Midwood High School,2016
bedford avenue,K,18630,James Madison High School,2016
benson avenue,K,19030,International High School at Lafayette,2016
benson avenue,K,19030,High School of Sports Management,2016
benson avenue,K,19030,Kingsborough Early College School,2016
benson avenue,K,19030,Life Academy High School for Film and Music,2016
benson avenue,K,19030,Expeditionary Learning School for Community Leaders,2016
bergen street,K,19230,Brooklyn Collegiate: A College Board School,2016
brighton 4 road,K,21850,William E. Grady Career and Technical Education High School,2016
bristol street,K,23130,Frederick Douglass Academy VII High School,2016
bristol street,K,23130,Teachers Preparatory High School,2016
broadway,K,23230,Brooklyn High School for Law and Technology,2016
bushwick avenue,K,23930,Young Women's Leadership School of Brooklyn,2016
bushwick avenue,K,23930,Bushwick Leaders High School for Academic Excellence,2016
carroll street,K,24830,Medgar Evers College Preparatory School,2016
classon avenue,K,26730,International High School at Prospect Heights,2016
classon avenue,K,26730,The High School for Global Citizenship,2016
classon avenue,K,26730,Brooklyn Academy of Science and the Environment,2016
classon avenue,K,26730,Brooklyn School for Music & Theatre,2016
classon avenue,K,26730,Clara Barton High School,2016
clinton avenue,K,27430,Benjamin Banneker Academy,2016
coney island avenue,K,28830,Brooklyn College Academy,2016
dean street,K,31830,Brooklyn High School of the Arts,2016
dekalb avenue,K,31530,EBC High School for Public Service - Bushwick,2016
elton street,K,39230,Spring Creek Community School,2016
elton street,K,39230,Academy for Young Writers,2016
flatbush avenue,K,40930,Academy for College Preparation and Career Exploration: A College Board School,2016
flatbush avenue,K,40930,Academy of Hospitality and Tourism,2016
flatbush avenue,K,40930,High School for Youth and Community Development at Erasmus,2016
flatbush avenue,K,40930,High School for Service & Learning at Erasmus,2016
flatbush avenue,K,40930,"Science, Technology and Research Early College High School at Erasmus",2016
flatbush avenue extension,K,40830,Urban Assembly High School of Music and Art,2016
flatbush avenue extension,K,40830,"Science Skills Center High School for Science, Technology and the Creative Arts",2016
flatbush avenue extension,K,40830,Brooklyn International High School,2016
flatlands avenue,K,41030,Brooklyn Generation School,2016
flatlands avenue,K,41030,Brooklyn Theatre Arts High School,2016
flatlands avenue,K,41030,Victory Collegiate High School,2016
flatlands avenue,K,41030,Academy for Conservation and the Environment,2016
fountain avenue,K,41830,"The School for Classics: An Academy of Thinkers, Writers and Performers",2016
fulton street,K,42730,Boys and Girls High School,2016
fulton street,K,42730,Nelson Mandela High School,2016
graham avenue,K,44930,"Brooklyn Latin School, The",2016
graham avenue,K,44930,Green School: An Academy for Environmental Careers,2016
graham avenue,K,44930,Lyons Community School,2016
grand avenue,K,45030,ACORN Community High School,2016
grand street,K,45130,PROGRESS High School for Professional Careers,2016
grand street,K,45130,School for Legal Studies,2016
grand street,K,45130,"The High School for Enterprise, Business and Technology",2016
henry street,K,48830,Brooklyn Secondary School for Collaborative Studies,2016
herkimer street,K,49130,Eagle Academy for Young Men II,2016
heyward street,K,49530,Juan Morel Campos Secondary School,2016
hooper street,K,50530,El Puente Academy for Peace and Justice,2016
irving avenue,K,52130,The Brooklyn School for Math and Research,2016
irving avenue,K,52130,Academy for Environmental Leadership,2016
irving avenue,K,52130,Bushwick School for Social Justice,2016
irving avenue,K,52130,Academy of Urban Planning,2016
jamaica avenue,K,52730,Multicultural High School,2016
jamaica avenue,K,52730,Academy of Innovative Technology,2016
jamaica avenue,K,52730,Brooklyn Lab School,2016
jamaica avenue,K,52730,Cypress Hills Collegiate Preparatory School,2016
jamaica avenue,K,52730,The Urban Assembly School for Collaborative Healthcare,2016
kingston avenue,K,54070,"School for Human Rights, The",2016
kingston avenue,K,54070,School for Democracy and Leadership,2016
kingston avenue,K,54070,High School for Public Service: Heroes of Tomorrow,2016
kingston avenue,K,54070,Brooklyn Institute for Liberal Arts,2016
lafayette avenue,K,54130,Frederick Douglass Academy IV Secondary School,2016
linden boulevard,K,56230,East New York Family Academy,2016
north 6 street,K,66230,Brooklyn Preparatory High School,2016
north 6 street,K,66230,Williamsburg High School for Architecture and Design,2016
north 6 street,K,66230,Williamsburg Preparatory School,2016
ocean parkway,K,67730,Abraham Lincoln High School,2016
palmetto street,K,69030,All City Leadership Secondary School,2016
park avenue,K,69230,Dr. Susan S. McKinney Secondary School of the Arts,2016
pennsylvania avenue,K,70330,FDNY High School for Fire and Life Safety,2016
pennsylvania avenue,K,70330,High School for Civil Rights,2016
pennsylvania avenue,K,70330,Performing Arts and Technology High School,2016
pennsylvania avenue,K,70330,World Academy for Total Community Health High School,2016
pennsylvania avenue,K,70330,W. H. Maxwell Career and Technical Education High School,2016
ralph avenue,K,73110,Gotham Professional Arts Academy,2016
rockaway parkway,K,73480,High School for Innovation in Advertising and Media,2016
rockaway parkway,K,73480,High School for Medical Professions,2016
rockaway parkway,K,73480,Urban Action Academy,2016
schermerhorn street,K,75530,Brooklyn Frontiers High School,2016
schermerhorn street,K,75530,Khalil Gibran International Academy,2016
shore boulevard,K,76930,Leon M. Goldstein High School for the Sciences,2016
shore road,K,77130,Fort Hamilton High School,2016
stuyvesant avenue,K,82930,The Brooklyn Academy of Global Finance,2016
tilden avenue,K,85530,It Takes a Village Academy,2016
tilden avenue,K,85530,Kurt Hahn Expeditionary Learning School,2016
tilden avenue,K,85530,Cultural Academy for the Arts and Sciences,2016
tompkins avenue,K,85730,Foundations Academy,2016
wells street,K,90460,Transit Tech Career and Technical Education High School,2016
west avenue,K,92230,Rachel Carson High School for Coastal Studies,2016
willoughby avenue,K,93230,"Brooklyn Community High School of Communication, Arts and Media",2016
winthrop street,K,93830,Arts & Media Preparatory Academy,2016
28 street,Q,07640,Energy Tech High School,2016
30 place,Q,07850,"Robert F. Wagner, Jr. Secondary School for Arts and Technology",2016
31 avenue,Q,07990,William Cullen Bryant High School,2016
35 avenue,Q,08590,Frank Sinatra School of the Arts High School,2016
36 avenue,Q,08690,Baccalaureate School for Global Education,2016
36 street,Q,08740,Aviation Career & Technical Education High School,2016
41 avenue,Q,09540,Newcomers High School,2016
41 avenue,Q,09540,Academy of American Studies,2016
44 road,Q,10040,Information Technology High School,2016
47 avenue,Q,10440,Queens Vocational and Technical High School,2016
51 avenue,Q,10890,Academy for Careers in Television and Film,2016
74 street,Q,15640,Maspeth High School,2016
76 road,Q,15940,"Queens School of Inquiry, The",2016
84 avenue,Q,17040,Thomas A. Edison Career and Technical Education High School,2016
87 road,Q,17690,"Young Women's Leadership School, Queens",2016
90 street,Q,18240,International High School for Health Sciences,2016
90 street,Q,18240,Newtown High School,2016
91 avenue,Q,18290,Cambria Heights Academy,2016
94 street,Q,18740,Civic Leadership Academy,2016
94 street,Q,18740,Pan American International High School,2016
104 street,Q,19740,"High School for Construction Trades, Engineering and Architecture",2016
110 street,Q,20390,Forest Hills High School,2016
114 street,Q,20740,Richmond Hill High School,2016
117 street,Q,21040,Epic High School - North,2016
159 street,Q,23940,Queens High School for the Sciences at York College,2016
167 street,Q,24390,York Early College Academy,2016
192 street,Q,25440,World Journalism Preparatory: A College Board School,2016
204 street,Q,26040,Pathways College Preparatory School: A College Board School,2016
223 street,Q,26990,Benjamin N. Cardozo High School,2016
baisley boulevard,Q,29090,August Martin High School,2016
barclay avenue,Q,29290,Flushing International High School,2016
bay 25 street,Q,29569,Frederick Douglass Academy VI High School,2016
bay 25 street,Q,29569,"Queens High School for Information, Research, and Technology",2016
bay 25 street,Q,29569,Academy of Medical Technology: A College Board School,2016
beach 104 street,Q,33610,Scholars' Academy,2016
beach channel drive,Q,35290,Channel View School for Research,2016
beach channel drive,Q,35290,Rockaway Park High School for Environmental Sustainability,2016
beach channel drive,Q,35290,Rockaway Collegiate High School,2016
broadway,Q,37290,Long Island City High School,2016
colden street,Q,39490,East-West School of International Studies,2016
corporal kennedy street,Q,40190,Bayside High School,2016
goethals avenue,Q,47090,Queens Gateway to Health Sciences Secondary School,2016
gothic drive,Q,47195,Queens Collegiate: A College Board School,2016
gothic drive,Q,47195,Hillside Arts & Letters Academy,2016
gothic drive,Q,47195,High School for Community Leadership,2016
gothic drive,Q,47195,Jamaica Gateway to the Sciences,2016
guy r brewer boulevard,Q,57190,High School for Law Enforcement and Public Safety,2016
highland avenue,Q,49490,Hillcrest High School,2016
hillside avenue,Q,49690,Business Technology Early College High School,2016
hillside avenue,Q,49690,Martin Van Buren High School,2016
himrod street,Q,49790,Grover Cleveland High School,2016
lafayette street,Q,52510,Robert H. Goddard High School of Communication Arts and Technology,2016
linden boulevard,Q,53890,Eagle Academy for Young Men III,2016
main street,Q,54580,John Bowne High School,2016
melbourne avenue,Q,55390,Townsend Harris High School,2016
metropolitan avenue,Q,55690,Metropolitan Expeditionary Learning School,2016
metropolitan avenue,Q,55690,QUEENS METROPOLITAN HIGH SCHOOL,2016
newtown avenue,Q,57390,"Young Women's Leadership School, Astoria",2016
parsons boulevard,Q,58590,Robert F. Kennedy Community High School,2016
rockaway boulevard,Q,60810,Epic High School - South,2016
rockaway boulevard,Q,60810,John Adams High School,2016
springfield boulevard,Q,63290,Queens Preparatory Academy,2016
springfield boulevard,Q,63290,Excelsior Preparatory High School,2016
springfield boulevard,Q,63290,George Washington Carver High School for the Sciences,2016
springfield boulevard,Q,63290,Preparatory Academy for Writers: A College Board School,2016
thomson avenue,Q,65120,Academy of Finance and Enterprise,2016
thomson avenue,Q,65120,High School of Applied Communication,2016
thomson avenue,Q,65120,Bard High School Early College Queens,2016
union street,Q,65490,Veritas Academy,2016
union street,Q,65490,Queens High School for Language Studies,2016
union street,Q,65490,Flushing High School,2016
utopia parkway,Q,65690,Francis Lewis High School,2016
van dam street,Q,65810,Middle College High School at LaGuardia Community College,2016
van dam street,Q,65810,International High School at LaGuardia Community College,2016
clawson street,R,23100,Staten Island Technical High School,2016
essex drive,R,27675,CSI High School for International Studies,2016
essex drive,R,27675,Gaynor McCown Expeditionary Learning School,2016
hamilton avenue,R,31400,Curtis High School,2016
luten avenue,R,37280,Tottenville High School,2016
manor road,R,37850,Susan E. Wagner High School,2016
new dorp lane,R,39800,New Dorp High School,2016
ocean terrace,R,41320,The Michael J. Petrides School,2016
st josephs avenue,R,48985,Port Richmond High School,2016
st marks place,R,49100,Ralph R. McKee Career and Technical Education High School,2016
7 avenue,NY,10610,Frederick Douglass Academy,2017
10 avenue,NY,11010,Independence High School,2017
academy street,NY,11310,Inwood Early College for Health and Information Technologies,2017
academy street,NY,11310,High School for Excellence and Innovation,2017
amsterdam avenue,NY,11710,High School of Arts and Technology,2017
amsterdam avenue,NY,11710,"Urban Assembly School for Media Studies, The",2017
amsterdam avenue,NY,11710,Manhattan / Hunter Science High School,2017
amsterdam avenue,NY,11710,Fiorello H. LaGuardia High School of Music & Art and Performing Arts,2017
amsterdam avenue,NY,11710,"High School for Law, Advocacy and Community Justice",2017
amsterdam avenue,NY,11710,The Maxine Greene High School for Imaginative Inquiry,2017
audubon avenue,NY,12010,High School for Media and Communications,2017
audubon avenue,NY,12010,The College Academy,2017
audubon avenue,NY,12010,High School for Law and Public Service,2017
audubon avenue,NY,12010,High School for Health Careers and Sciences,2017
avenue of the americas,NY,10510,NYC iSchool,2017
avenue of the americas,NY,10510,Chelsea Career and Technical Education High School,2017
beaver street,NY,12950,Richard R. Green High School of Teaching,2017
broad street,NY,13590,Millennium High School,2017
broadway,NY,13610,City College Academy of the Arts,2017
broadway,NY,13610,"Urban Assembly School of Business for Young Women, The",2017
chambers street,NY,14710,Stuyvesant High School,2017
columbia street,NY,15610,"New Explorations into Science, Technology and Math High School (NEST+m)",2017
east 12 street,NY,17230,East Side Community School,2017
east 15 street,NY,17290,"Clinton School Writers & Artists, M.S. 260",2017
east 15 street,NY,17290,High School for Health Professions and Human Services,2017
east 15 street,NY,17290,Institute for Collaborative Education (ICE),2017
east 22 street,NY,17430,School of the Future High School,2017
east 23 street,NY,17450,47 The American Sign Language and English Secondary School,2017
east 25 street,NY,17490,Baruch College Campus High School,2017
east 33 street,NY,17650,Unity Center for Urban Technologies,2017
east 33 street,NY,17650,Murray Hill Academy,2017
east 33 street,NY,17650,Manhattan Academy for Arts & Language,2017
east 56 street,NY,18110,Art and Design High School,2017
east 67 street,NY,18330,Vanguard High School,2017
east 67 street,NY,18330,Manhattan International High School,2017
east 67 street,NY,18330,Talent Unlimited High School,2017
east 76 street,NY,18510,Eleanor Roosevelt High School,2017
east 96 street,NY,18890,Life Sciences Secondary School,2017
east 105 street,NY,19070,Park East High School,2017
east 106 street,NY,19090,Young Womens Leadership School (TYWLS),2017
east 109 street,NY,19150,Esperanza Preparatory Academy,2017
east houston street,NY,19890,Bard High School Early College,2017
edgecombe avenue,NY,19990,Eagle Academy for Young Men of Harlem,2017
edgecombe avenue,NY,19990,Mott Hall High School,2017
grand street,NY,21690,New Design High School,2017
grand street,NY,21690,"Urban Assembly Academy of Government and Law, The",2017
grand street,NY,21690,Essex Street Academy,2017
grand street,NY,21690,High School for Dual Language and Asian Studies,2017
grand street,NY,21690,Lower Manhattan Arts Academy,2017
henry street,NY,22690,Orchard Collegiate Academy (Henry Street School),2017
hester street,NY,22890,Pace High School,2017
irving place,NY,23390,International High School at Union Square,2017
irving place,NY,23390,The High School For Language And Diplomacy,2017
irving place,NY,23390,Gramercy Arts High School,2017
irving place,NY,23390,Academy for Software Engineering (AFSE),2017
irving place,NY,23390,Union Square Academy for Health Sciences,2017
lexington avenue,NY,24890,"Heritage School, The",2017
madison avenue,NY,25390,Central Park East High School,2017
madison avenue,NY,25390,The Urban Assembly School for Global Commerce,2017
monroe street,NY,26390,University Neighborhood High School,2017
pearl street,NY,28490,Murry Bergtraum High School for Business Careers,2017
pearl street,NY,28490,Urban Assembly Maker Academy,2017
pearl street,NY,28490,The Urban Assembly School for Emergency Management,2017
pearl street,NY,28490,Manhattan Early College School for Advertising,2017
pleasant avenue,NY,29090,Manhattan Center for Science and Mathematics,2017
stanton street,NY,31490,Marta Valle High School,2017
trinity place,NY,32615,High School of Economics and Finance,2017
trinity place,NY,32615,Leadership and Public Service High School,2017
west 14 street,NY,34050,Harvest Collegiate High School,2017
west 17 street,NY,34110,NYC Lab School for Collaborative Studies,2017
west 17 street,NY,34110,NYC Museum School,2017
west 18 street,NY,34130,Quest to Learn,2017
west 18 street,NY,34130,Hudson High School of Learning Technologies,2017
west 18 street,NY,34130,Landmark High School,2017
west 18 street,NY,34130,Humanities Preparatory Academy,2017
west 18 street,NY,34130,Manhattan Business Academy,2017
west 22 street,NY,34210,Manhattan Village Academy,2017
west 24 street,NY,34250,The High School of Fashion Industries,2017
west 43 street,NY,34630,Repertory Company High School for Theatre Arts,2017
west 44 street,NY,34650,Beacon High School,2017
west 46 street,NY,34690,Jacqueline Kennedy Onassis High School,2017
west 48 street,NY,34730,Professional Performing Arts High School (PPAS),2017
west 49 street,NY,34750,Stephen T. Mather Building Arts & Craftsmanship High School,2017
west 49 street,NY,34750,Business Of Sports School (BOSS),2017
west 49 street,NY,34750,Urban Assembly Gateway School for Technology,2017
west 50 street,NY,34770,High School of Hospitality Management,2017
west 50 street,NY,34770,"Facing History School, The",2017
west 50 street,NY,34770,Food and Finance High School,2017
west 50 street,NY,34770,"Urban Assembly School of Design and Construction, The",2017
west 50 street,NY,34770,Manhattan Bridges High School,2017
west 56 street,NY,34890,High School for Environmental Studies,2017
west 67 street,NY,35110,Special Music School,2017
west 84 street,NY,35450,The Urban Assembly School for Green Careers,2017
west 84 street,NY,35450,The Global Learning Collaborative,2017
west 84 street,NY,35450,Frank McCourt High School,2017
west 114 street,NY,36050,Wadleigh Secondary School for the Performing & Visual Arts,2017
west 114 street,NY,36050,Frederick Douglass Academy II Secondary School,2017
west 123 street,NY,36230,Columbia Secondary School,2017
west 129 street,NY,36350,Urban Assembly School for the Performing Arts,2017
west 129 street,NY,36350,Academy for Social Action,2017
west 135 street,NY,36470,A. Philip Randolph Campus High School,2017
west 135 street,NY,36470,Thurgood Marshall Academy for Learning and Social Change,2017
west 158 street,NY,36930,Community Health Academy of the Heights,2017
west 182 street,NY,37390,Washington Heights Expeditionary Learning School (WHEELS),2017
astor avenue,BX,09620,Astor Collegiate Academy,2017
astor avenue,BX,09620,High School of Language and Innovation,2017
astor avenue,BX,09620,Collegiate Institute for Math and Science (CIMS),2017
astor avenue,BX,09620,Pelham Preparatory Academy,2017
astor avenue,BX,09620,Bronxdale High School,2017
bathgate avenue,BX,11420,"Urban Assembly School for Applied Math and Science, The",2017
bathgate avenue,BX,11420,Validus Preparatory Academy: An Expeditionary Learning School,2017
bathgate avenue,BX,11420,Mott Hall Bronx High School,2017
baychester avenue,BX,11620,Harry S Truman High School,2017
baychester avenue,BX,11620,Bronx Health Sciences High School,2017
boston road,BX,13820,Bronx Envision Academy,2017
boston road,BX,13820,Bronx International High School,2017
boston road,BX,13820,Explorations Academy,2017
boston road,BX,13820,School for Excellence,2017
boston road,BX,13820,High School for Violin and Dance,2017
boston road,BX,13820,Morris Academy for Collaborative Studies,2017
boynton avenue,BX,14220,High School of World Cultures,2017
boynton avenue,BX,14220,Monroe Academy for Visual Arts & Design,2017
boynton avenue,BX,14220,The Metropolitan Soundview High School,2017
boynton avenue,BX,14220,Pan American International High School at Monroe,2017
brook avenue,BX,15720,International Community High School,2017
crotona avenue,BX,22320,Bronx Academy for Software Engineering (BASE),2017
crotona avenue,BX,22320,High School for Energy and Technology,2017
crotona avenue,BX,22320,Crotona International High School,2017
east 145 street,BX,26010,South Bronx Preparatory: A College Board School,2017
east 145 street,BX,26010,M.S. 223 The Laboratory School of Finance and Technology,2017
east 151 street,BX,26190,Alfred E. Smith Career and Technical Education High School,2017
east 151 street,BX,26190,Bronx Design and Construction Academy,2017
east 163 street,BX,26550,"Bronx School for Law, Government and Justice",2017
east 164 street,BX,26580,Bronx Early College Academy for Teaching & Learning,2017
east 172 street,BX,26820,Bronx Collegiate Academy,2017
east 172 street,BX,26820,Bronx High School of Business,2017
east 172 street,BX,26820,The Cinema School,2017
east 172 street,BX,26820,New Directions Secondary School,2017
east 172 street,BX,26820,DreamYard Preparatory School,2017
east 172 street,BX,26820,Claremont International HS,2017
east 172 street,BX,26820,Bronx High School for Medical Science,2017
east 172 street,BX,26820,Mott Hall V,2017
east 180 street,BX,27060,Wings Academy,2017
east 228 street,BX,28470,Academy for Scholarship and Entrepreneurship: A College Board School,2017
east 228 street,BX,28470,The Bronxwood Preparatory Academy,2017
east 228 street,BX,28470,New World High School,2017
east fordham road,BX,29220,Bronx High School for Law and Community Service,2017
east fordham road,BX,29220,West Bronx Academy for the Future,2017
east fordham road,BX,29220,Fordham Leadership Academy for Business and Technology,2017
east fordham road,BX,29220,Fordham High School for the Arts,2017
east fordham road,BX,29220,Knowledge and Power Preparatory Academy International High School (KAPPA),2017
east fordham road,BX,29220,Belmont Preparatory High School,2017
east gun hill road,BX,29320,Bronx Aerospace High School,2017
east gun hill road,BX,29320,Bronx High School for Writing and Communication Arts,2017
east gun hill road,BX,29320,High School of Computers and Technology,2017
east gun hill road,BX,29320,High School for Contemporary Arts,2017
east gun hill road,BX,29320,Bronx Academy of Health Careers,2017
east gun hill road,BX,29320,Bronx Lab School,2017
east tremont avenue,BX,29620,Bronx River High School,2017
east tremont avenue,BX,29620,Renaissance High School for Musical Theater & Technology,2017
east tremont avenue,BX,29620,Herbert H. Lehman High School,2017
east tremont avenue,BX,29620,Schuylerville Preparatory High School,2017
east tremont avenue,BX,29620,Westchester Square Academy,2017
east tremont avenue,BX,29620,Pelham Lab High School,2017
fulton avenue,BX,34220,Bronx Center for Science and Mathematics,2017
fulton avenue,BX,34220,Eximius College Preparatory Academy: A College Board School,2017
fulton avenue,BX,34220,Leadership Institute,2017
gerard avenue,BX,35020,Community School for Social Justice,2017
gerard avenue,BX,35020,Health Opportunities High School,2017
goulden avenue,BX,36060,High School of American Studies at Lehman College,2017
home street,BX,40520,Bronx Career and College Preparatory High School,2017
home street,BX,40520,Bronx Latin,2017
jennings street,BX,42720,Fannie Lou Hamer Freedom High School,2017
jerome avenue,BX,42820,Comprehensive Model School Project M.S. 327,2017
lafayette avenue,BX,45120,Millennium Art Academy,2017
lafayette avenue,BX,45120,Pablo Neruda Academy,2017
lafayette avenue,BX,45120,Bronx Compass High School,2017
lafayette avenue,BX,45120,Bronx Guild,2017
lafayette avenue,BX,45120,Bronx Bridges High School,2017
lafayette avenue,BX,45120,Antonia Pantoja Preparatory Academy: A College Board School,2017
longwood avenue,BX,46820,Holcombe L. Rucker School of Community Research,2017
longwood avenue,BX,46820,Banana Kelly High School,2017
macombs road,BX,48220,Academy for Language and Technology,2017
mohegan avenue,BX,51520,Urban Assembly School for Wildlife Conservation,2017
morris avenue,BX,52120,The Urban Assembly Bronx Academy of Letters,2017
morris avenue,BX,52120,Young Women's Leadership School of the Bronx (TYWLS),2017
reservoir avenue,BX,60820,High School for Teaching and the Professions,2017
reservoir avenue,BX,60820,International School for Liberal Arts,2017
reservoir avenue,BX,60820,"Celia Cruz Bronx High School of Music, The",2017
reservoir avenue,BX,60820,Kingsbridge International High School,2017
reservoir avenue,BX,60820,Discovery High School,2017
simpson street,BX,65020,Bronx Studio School for Writers and Artists,2017
southern boulevard,BX,65320,East Bronx Academy for the Future,2017
southern boulevard,BX,65320,Crotona Academy High School,2017
st anns avenue,BX,65620,University Heights Secondary School,2017
st anns avenue,BX,65620,Mott Haven Village Preparatory High School,2017
story avenue,BX,66920,"Felisa Rincon de Gautier Institute for Law and Public Policy, The",2017
terrace view avenue,BX,67880,Bronx School of Law and Finance,2017
terrace view avenue,BX,67880,Bronx Engineering and Technology Academy,2017
terrace view avenue,BX,67880,Bronx Theatre High School,2017
terrace view avenue,BX,67880,Marble Hill High School for International Studies,2017
tibbett avenue,BX,68320,In-Tech Academy (M.S. / High School 368),2017
tinton avenue,BX,69020,School for Tourism and Hospitality,2017
webster avenue,BX,73720,Theater Arts Production Company School (TaPCO),2017
webster avenue,BX,73720,Bronx Leadership Academy High School,2017
west 205 street,BX,74880,Bronx High School of Science,2017
west 231 street,BX,74960,"The Marie Curie School for Medicine, Nursing, and Health Professions",2017
west 237 street,BX,75110,Riverdale / Kingsbridge Academy (Middle School / High School 141) (RKA),2017
white plains road,BX,77150,Women's Academy of Excellence,2017
white plains road,BX,77150,"Archimedes Academy for Math, Science and Technology Applications",2017
7 avenue,K,05780,Millennium Brooklyn HS,2017
7 avenue,K,05780,Secondary School for Journalism,2017
7 avenue,K,05780,John Jay School for Law (Secondary School for Law),2017
7 avenue,K,05780,Park Slope Collegiate,2017
16 avenue,K,06680,Urban Assembly School for Criminal Justice,2017
20 avenue,K,07080,Franklin Delano Roosevelt High School,2017
21 avenue,K,07230,Brooklyn Studio Secondary School,2017
35 street,K,08330,Sunset Park High School,2017
67 street,K,09930,High School of Telecommunication Arts and Technology,2017
80 street,K,10580,New Utrecht High School,2017
adams street,K,11800,The Urban Assembly School for Law and Justice,2017
adams street,K,11800,Urban Assembly Institute of Math and Science for Young Women,2017
albany avenue,K,12130,Pathways in Technology Early College High School (P-TECH),2017
albany avenue,K,12130,Academy for Health Careers,2017
avenue l,K,14180,Edward R. Murrow High School,2017
avenue x,K,14780,Professional Pathways High School,2017
avenue x,K,14780,John Dewey High School,2017
avenue x,K,14780,Origins High School,2017
baltic street,K,15180,Cobble Hill School of American Studies,2017
baltic street,K,15180,School for International Studies,2017
baltic street,K,15180,Digital Arts and Cinema Technology High School (Brooklyn School for Global Studies),2017
bedford avenue,K,18630,Greenpoint Art and Technical High School (Frances Perkins Academy),2017
bedford avenue,K,18630,Bedford Academy High School,2017
bedford avenue,K,18630,Midwood High School,2017
bedford avenue,K,18630,Automotive High School,2017
bedford avenue,K,18630,James Madison High School,2017
benson avenue,K,19030,Kingsborough Early College School,2017
benson avenue,K,19030,International High School at Lafayette,2017
benson avenue,K,19030,High School of Sports Management,2017
benson avenue,K,19030,Life Academy High School for Film and Music,2017
benson avenue,K,19030,Expeditionary Learning School for Community Leaders,2017
bergen street,K,19230,Brooklyn Collegiate: A College Board School,2017
brighton 4 road,K,21850,William E. Grady Career and Technical Education High School,2017
bristol street,K,23130,Teachers Preparatory High School,2017
bristol street,K,23130,Frederick Douglass Academy VII High School,2017
broadway,K,23230,Brooklyn High School for Law and Technology,2017
bushwick avenue,K,23930,Young Women's Leadership School of Brooklyn (TYWLS),2017
bushwick avenue,K,23930,Bushwick Leaders High School for Academic Excellence,2017
carroll street,K,24830,Medgar Evers College Preparatory School,2017
classon avenue,K,26730,Brooklyn School for Music & Theatre,2017
classon avenue,K,26730,International High School at Prospect Heights,2017
classon avenue,K,26730,Clara Barton High School,2017
classon avenue,K,26730,The High School for Global Citizenship,2017
classon avenue,K,26730,Brooklyn Academy of Science and the Environment,2017
clinton avenue,K,27430,Benjamin Banneker Academy,2017
coney island avenue,K,28830,Brooklyn College Academy,2017
dean street,K,31830,Brooklyn High School of the Arts,2017
dekalb avenue,K,31530,EBC High School for Public Service - Bushwick,2017
eastern parkway,K,38430,W.E.B. DuBois Academic High School,2017
elton street,K,39230,Academy for Young Writers,2017
elton street,K,39230,Spring Creek Community School,2017
flatbush avenue,K,40930,Academy for College Preparation and Career Exploration: A College Board School,2017
flatbush avenue,K,40930,Academy of Hospitality and Tourism,2017
flatbush avenue,K,40930,High School for Youth and Community Development at Erasmus,2017
flatbush avenue,K,40930,"Science, Technology and Research Early College High School at Erasmus (STAR)",2017
flatbush avenue,K,40930,High School for Service & Learning at Erasmus,2017
flatbush avenue extension,K,40830,"Science Skills Center High School for Science, Technology and the Creative Arts",2017
flatbush avenue extension,K,40830,Brooklyn International High School,2017
flatbush avenue extension,K,40830,Urban Assembly High School of Music and Art,2017
flatlands avenue,K,41030,Brooklyn Generation School,2017
flatlands avenue,K,41030,Brooklyn Theatre Arts High School,2017
flatlands avenue,K,41030,Academy for Conservation and the Environment,2017
flatlands avenue,K,41030,Victory Collegiate High School,2017
fountain avenue,K,41830,"The School for Classics: An Academy of Thinkers, Writers and Performers",2017
fulton street,K,42730,Boys and Girls High School,2017
fulton street,K,42730,Nelson Mandela High School,2017
graham avenue,K,44930,Lyons Community School,2017
graham avenue,K,44930,"Brooklyn Latin School, The",2017
graham avenue,K,44930,Green School: An Academy for Environmental Careers,2017
grand avenue,K,45030,ACORN Community High School,2017
grand street,K,45130,"The High School for Enterprise, Business and Technology",2017
grand street,K,45130,PROGRESS High School for Professional Careers,2017
grand street,K,45130,School for Legal Studies,2017
henry street,K,48830,Brooklyn Secondary School for Collaborative Studies,2017
herkimer street,K,49130,Eagle Academy for Young Men II,2017
heyward street,K,49530,Juan Morel Campos Secondary School,2017
hooper street,K,50530,El Puente Academy for Peace and Justice,2017
irving avenue,K,52130,Bushwick School for Social Justice,2017
irving avenue,K,52130,Academy of Urban Planning,2017
irving avenue,K,52130,The Brooklyn School for Math and Research (BSMARt),2017
irving avenue,K,52130,Academy for Environmental Leadership,2017
jamaica avenue,K,52730,Cypress Hills Collegiate Preparatory School,2017
jamaica avenue,K,52730,The Urban Assembly School for Collaborative Healthcare,2017
jamaica avenue,K,52730,Multicultural High School,2017
jamaica avenue,K,52730,Academy of Innovative Technology,2017
jamaica avenue,K,52730,Brooklyn Lab School,2017
johnson street,K,53630,George Westinghouse Career and Technical Education High School,2017
kingston avenue,K,54070,School for Democracy and Leadership,2017
kingston avenue,K,54070,High School for Public Service: Heroes of Tomorrow,2017
kingston avenue,K,54070,Brooklyn Institute for Liberal Arts (BILA),2017
kingston avenue,K,54070,The School for Human Rights,2017
linden boulevard,K,56230,East New York Family Academy,2017
north 6 street,K,66230,Williamsburg Preparatory School,2017
north 6 street,K,66230,Williamsburg High School for Architecture and Design,2017
north 6 street,K,66230,Brooklyn Preparatory High School,2017
ocean parkway,K,67730,Abraham Lincoln High School,2017
palmetto street,K,69030,All City Leadership Secondary School,2017
park avenue,K,69230,Dr. Susan S. McKinney Secondary School of the Arts,2017
pennsylvania avenue,K,70330,Performing Arts and Technology High School,2017
pennsylvania avenue,K,70330,FDNY  Captain Vernon A. Richards High School for Fire and Life Safety,2017
pennsylvania avenue,K,70330,High School for Civil Rights,2017
pennsylvania avenue,K,70330,W. H. Maxwell Career and Technical Education High School,2017
pennsylvania avenue,K,70330,World Academy for Total Community Health High School (WATCH),2017
ralph avenue,K,73110,Gotham Professional Arts Academy,2017
rockaway avenue,K,73470,Metropolitan Diploma Plus High School,2017
rockaway parkway,K,73480,High School for Medical Professions,2017
rockaway parkway,K,73480,Urban Action Academy,2017
rockaway parkway,K,73480,High School for Innovation in Advertising and Media,2017
schermerhorn street,K,75530,Brooklyn Frontiers High School,2017
schermerhorn street,K,75530,Khalil Gibran International Academy,2017
shore boulevard,K,76930,Leon M. Goldstein High School for the Sciences,2017
shore road,K,77130,Fort Hamilton High School,2017
stuyvesant avenue,K,82930,Frederick Douglass Academy IV Secondary School,2017
stuyvesant avenue,K,82930,The Brooklyn Academy of Global Finance,2017
tilden avenue,K,85530,It Takes a Village Academy,2017
tilden avenue,K,85530,Kurt Hahn Expeditionary Learning School,2017
tilden avenue,K,85530,Cultural Academy for the Arts and Sciences,2017
wells street,K,90460,Transit Tech Career and Technical Education High School,2017
west 19 street,K,91330,Liberation Diploma Plus High School,2017
west avenue,K,92230,Rachel Carson High School for Coastal Studies,2017
willoughby avenue,K,93230,"Brooklyn Community High School of Communication, Arts and Media (BCAM)",2017
winthrop street,K,93830,Arts & Media Preparatory Academy,2017
28 street,Q,07640,Energy Tech High School,2017
30 place,Q,07850,"Robert F. Wagner, Jr. Secondary School for Arts and Technology",2017
31 avenue,Q,07990,William Cullen Bryant High School,2017
35 avenue,Q,08590,Frank Sinatra School of the Arts High School,2017
36 avenue,Q,08690,Baccalaureate School for Global Education,2017
36 street,Q,08740,Aviation Career & Technical Education High School,2017
41 avenue,Q,09540,Academy of American Studies,2017
41 avenue,Q,09540,Newcomers High School,2017
44 road,Q,10040,Information Technology High School,2017
47 avenue,Q,10440,Queens Vocational and Technical High School,2017
51 avenue,Q,10890,Academy for Careers in Television and Film (ACTV),2017
74 street,Q,15640,Maspeth High School,2017
76 road,Q,15940,"Queens School of Inquiry, The",2017
84 avenue,Q,17040,Thomas A. Edison Career and Technical Education High School,2017
87 road,Q,17690,"Young Women's Leadership School, Queens (TYWLS)",2017
90 street,Q,18240,Newtown High School,2017
90 street,Q,18240,International High School for Health Sciences,2017
91 avenue,Q,18290,Cambria Heights Academy,2017
94 street,Q,18740,Pan American International High School,2017
94 street,Q,18740,Civic Leadership Academy,2017
104 street,Q,19740,"High School for Construction Trades, Engineering and Architecture",2017
110 street,Q,20390,Forest Hills High School,2017
114 street,Q,20740,Richmond Hill High School,2017
117 street,Q,21040,Epic High School - North,2017
159 street,Q,23940,Queens High School for the Sciences at York College,2017
167 street,Q,24390,York Early College Academy,2017
192 street,Q,25440,World Journalism Preparatory: A College Board School,2017
204 street,Q,26040,Pathways College Preparatory School: A College Board School,2017
223 street,Q,26990,Benjamin N. Cardozo High School,2017
baisley boulevard,Q,29090,August Martin High School,2017
barclay avenue,Q,29290,Flushing International High School,2017
bay 25 street,Q,29569,Frederick Douglass Academy VI High School,2017
bay 25 street,Q,29569,Academy of Medical Technology: A College Board School,2017
bay 25 street,Q,29569,"Queens High School for Information, Research, and Technology",2017
beach 104 street,Q,33610,Scholars' Academy,2017
beach channel drive,Q,35290,Rockaway Collegiate High School,2017
beach channel drive,Q,35290,Channel View School for Research,2017
beach channel drive,Q,35290,Rockaway Park High School for Environmental Sustainability,2017
broadway,Q,37290,Long Island City High School,2017
colden street,Q,39490,East-West School of International Studies,2017
corporal kennedy street,Q,40190,Bayside High School,2017
goethals avenue,Q,47090,Queens Gateway to Health Sciences Secondary School,2017
gothic drive,Q,47195,Hillside Arts & Letters Academy,2017
gothic drive,Q,47195,Jamaica Gateway to the Sciences,2017
gothic drive,Q,47195,Queens Collegiate: A College Board School,2017
gothic drive,Q,47195,High School for Community Leadership,2017
guy r brewer boulevard,Q,57190,High School for Law Enforcement and Public Safety,2017
highland avenue,Q,49490,Hillcrest High School,2017
hillside avenue,Q,49690,Business Technology Early College High School (BTECH),2017
hillside avenue,Q,49690,Martin Van Buren High School,2017
himrod street,Q,49790,Grover Cleveland High School,2017
lafayette street,Q,52510,Robert H. Goddard High School of Communication Arts and Technology,2017
linden boulevard,Q,53890,Eagle Academy for Young Men III,2017
main street,Q,54580,John Bowne High School,2017
melbourne avenue,Q,55390,Townsend Harris High School,2017
metropolitan avenue,Q,55690,Metropolitan Expeditionary Learning School,2017
metropolitan avenue,Q,55690,Queens Metropolitan High School,2017
newtown avenue,Q,57390,"Young Women's Leadership School, Astoria (TYWLS)",2017
parsons boulevard,Q,58590,Robert F. Kennedy Community High School,2017
rockaway boulevard,Q,60810,Epic High School - South,2017
rockaway boulevard,Q,60810,John Adams High School,2017
springfield boulevard,Q,63290,Preparatory Academy for Writers: A College Board School,2017
springfield boulevard,Q,63290,George Washington Carver High School for the Sciences,2017
springfield boulevard,Q,63290,Excelsior Preparatory High School,2017
springfield boulevard,Q,63290,Queens Preparatory Academy,2017
thomson avenue,Q,65120,Academy of Finance and Enterprise,2017
thomson avenue,Q,65120,Bard High School Early College Queens,2017
thomson avenue,Q,65120,High School of Applied Communication,2017
union street,Q,65490,Flushing High School,2017
union street,Q,65490,Queens High School for Language Studies,2017
union street,Q,65490,Veritas Academy,2017
utopia parkway,Q,65690,Francis Lewis High School,2017
van dam street,Q,65810,International High School at LaGuardia Community College,2017
van dam street,Q,65810,Middle College High School at LaGuardia Community College,2017
clawson street,R,23100,Staten Island Technical High School,2017
essex drive,R,27675,CSI High School for International Studies,2017
essex drive,R,27675,Gaynor McCown Expeditionary Learning School,2017
hamilton avenue,R,31400,Curtis High School,2017
luten avenue,R,37280,Tottenville High School,2017
manor road,R,37850,Susan E. Wagner High School,2017
new dorp lane,R,39800,New Dorp High School,2017
ocean terrace,R,41320,The Michael J. Petrides School,2017
st josephs avenue,R,48985,Port Richmond High School,2017
st marks place,R,49100,Ralph R. McKee Career and Technical Education High School,2017
7 avenue,NY,10610,Frederick Douglass Academy,2018
10 avenue,NY,11010,Independence High School,2018
academy street,NY,11310,Inwood Early College for Health and Information Technologies,2018
academy street,NY,11310,High School for Excellence and Innovation,2018
amsterdam avenue,NY,11710,High School of Arts and Technology,2018
amsterdam avenue,NY,11710,"High School for Law, Advocacy and Community Justice",2018
amsterdam avenue,NY,11710,The Maxine Greene High School for Imaginative Inquiry,2018
amsterdam avenue,NY,11710,Manhattan / Hunter Science High School,2018
amsterdam avenue,NY,11710,"Urban Assembly School for Media Studies, The",2018
amsterdam avenue,NY,11710,Special Music School,2018
amsterdam avenue,NY,11710,Fiorello H. LaGuardia High School of Music & Art and Performing Arts,2018
audubon avenue,NY,12010,The College Academy,2018
audubon avenue,NY,12010,High School for Health Careers and Sciences,2018
audubon avenue,NY,12010,High School for Media and Communications,2018
audubon avenue,NY,12010,High School for Law and Public Service,2018
avenue of the americas,NY,10510,Chelsea Career and Technical Education High School,2018
avenue of the americas,NY,10510,NYC iSchool,2018
beaver street,NY,12950,Richard R. Green High School of Teaching,2018
broad street,NY,13590,Millennium High School,2018
broadway,NY,13610,"Urban Assembly School of Business for Young Women, The",2018
broadway,NY,13610,City College Academy of the Arts,2018
chambers street,NY,14710,Stuyvesant High School,2018
columbia street,NY,15610,"New Explorations into Science, Technology and Math High School (NEST+m)",2018
east 12 street,NY,17230,East Side Community School,2018
east 15 street,NY,17290,High School for Health Professions and Human Services,2018
east 15 street,NY,17290,"Clinton School Writers & Artists, M.S. 260",2018
east 15 street,NY,17290,Institute for Collaborative Education (ICE),2018
east 22 street,NY,17430,School of the Future High School,2018
east 23 street,NY,17450, The American Sign Language and English Secondary School,2018
east 25 street,NY,17490,Baruch College Campus High School,2018
east 33 street,NY,17650,Unity Center for Urban Technologies,2018
east 33 street,NY,17650,Manhattan Academy for Arts & Language,2018
east 33 street,NY,17650,Murray Hill Academy,2018
east 56 street,NY,18110,Art and Design High School,2018
east 67 street,NY,18330,Talent Unlimited High School,2018
east 67 street,NY,18330,Manhattan International High School,2018
east 67 street,NY,18330,Vanguard High School,2018
east 76 street,NY,18510,Eleanor Roosevelt High School,2018
east 96 street,NY,18890,Life Sciences Secondary School,2018
east 105 street,NY,19070,Park East High School,2018
east 106 street,NY,19090,Young Women's Leadership School (TYWLS),2018
east 109 street,NY,19150,Esperanza Preparatory Academy,2018
east houston street,NY,19890,Bard High School Early College,2018
edgecombe avenue,NY,19990,Mott Hall High School,2018
edgecombe avenue,NY,19990,Eagle Academy for Young Men of Harlem,2018
grand street,NY,21690,"Urban Assembly Academy of Government and Law, The",2018
grand street,NY,21690,High School for Dual Language and Asian Studies,2018
grand street,NY,21690,New Design High School,2018
grand street,NY,21690,Lower Manhattan Arts Academy,2018
grand street,NY,21690,Essex Street Academy,2018
henry street,NY,22690,Orchard Collegiate Academy,2018
hester street,NY,22890,Pace High School,2018
irving place,NY,23390,Gramercy Arts High School,2018
irving place,NY,23390,The High School For Language And Diplomacy,2018
irving place,NY,23390,Union Square Academy for Health Sciences,2018
irving place,NY,23390,Academy for Software Engineering (AFSE),2018
irving place,NY,23390,International High School at Union Square,2018
lexington avenue,NY,24890,"Heritage School, The",2018
madison avenue,NY,25390,The Urban Assembly School for Global Commerce,2018
madison avenue,NY,25390,Central Park East High School,2018
monroe street,NY,26390,University Neighborhood High School,2018
pearl street,NY,28490,The Urban Assembly School for Emergency Management,2018
pearl street,NY,28490,Manhattan Early College School for Advertising,2018
pearl street,NY,28490,Murry Bergtraum High School for Business Careers,2018
pearl street,NY,28490,Urban Assembly Maker Academy,2018
pleasant avenue,NY,29090,Manhattan Center for Science and Mathematics,2018
stanton street,NY,31490,Marta Valle High School,2018
trinity place,NY,32615,Leadership and Public Service High School,2018
trinity place,NY,32615,High School of Economics and Finance,2018
west 14 street,NY,34050,Harvest Collegiate High School,2018
west 17 street,NY,34110,N.Y.C. Museum School,2018
west 17 street,NY,34110,N.Y.C. Lab School for Collaborative Studies,2018
west 18 street,NY,34130,Quest to Learn,2018
west 18 street,NY,34130,Landmark High School,2018
west 18 street,NY,34130,Hudson High School of Learning Technologies,2018
west 18 street,NY,34130,Humanities Preparatory Academy,2018
west 18 street,NY,34130,Manhattan Business Academy,2018
west 22 street,NY,34210,Manhattan Village Academy,2018
west 24 street,NY,34250,The High School of Fashion Industries,2018
west 43 street,NY,34630,Repertory Company High School for Theatre Arts,2018
west 44 street,NY,34650,Beacon High School,2018
west 46 street,NY,34690,Jacqueline Kennedy Onassis High School,2018
west 48 street,NY,34730,Professional Performing Arts High School (PPAS),2018
west 49 street,NY,34750,Stephen T. Mather Building Arts & Craftsmanship High School,2018
west 49 street,NY,34750,Urban Assembly Gateway School for Technology,2018
west 49 street,NY,34750,Business of Sports School (BOSS),2018
west 50 street,NY,34770,Food and Finance High School,2018
west 50 street,NY,34770,"Urban Assembly School of Design and Construction, The",2018
west 50 street,NY,34770,High School of Hospitality Management,2018
west 50 street,NY,34770,"Facing History School, The",2018
west 50 street,NY,34770,Manhattan Bridges High School,2018
west 56 street,NY,34890,High School for Environmental Studies,2018
west 61 street,NY,34990,West End Secondary School,2018
west 84 street,NY,35450,Frank McCourt High School,2018
west 84 street,NY,35450,The Global Learning Collaborative,2018
west 84 street,NY,35450,The Urban Assembly School for Green Careers,2018
west 114 street,NY,36050,Frederick Douglass Academy II Secondary School,2018
west 114 street,NY,36050,Wadleigh Secondary School for the Performing & Visual Arts,2018
west 123 street,NY,36230,Columbia Secondary School,2018
west 129 street,NY,36350,Academy for Social Action,2018
west 129 street,NY,36350,Urban Assembly School for the Performing Arts,2018
west 135 street,NY,36470,Thurgood Marshall Academy for Learning and Social Change,2018
west 135 street,NY,36470,A. Philip Randolph Campus High School,2018
west 158 street,NY,36930,Community Health Academy of the Heights,2018
west 165 street,NY,37070,Gregorio Luperon High School for Science and Mathematics,2018
west 182 street,NY,37390,Washington Heights Expeditionary Learning School (WHEELS),2018
antin place,BX,08930,Bronx High School for the Visual Arts,2018
astor avenue,BX,09620,Astor Collegiate Academy,2018
astor avenue,BX,09620,Pelham Preparatory Academy,2018
astor avenue,BX,09620,High School of Language and Innovation,2018
astor avenue,BX,09620,Collegiate Institute for Math and Science (CIMS),2018
astor avenue,BX,09620,Bronxdale High School,2018
bathgate avenue,BX,11420,Validus Preparatory Academy,2018
bathgate avenue,BX,11420,"Urban Assembly School for Applied Math and Science, The",2018
bathgate avenue,BX,11420,Mott Hall Bronx High School,2018
baychester avenue,BX,11620,Bronx Health Sciences High School,2018
baychester avenue,BX,11620,Harry S Truman High School,2018
boston road,BX,13820,High School for Violin and Dance,2018
boston road,BX,13820,Explorations Academy,2018
boston road,BX,13820,School for Excellence,2018
boston road,BX,13820,Bronx Envision Academy,2018
boston road,BX,13820,Morris Academy for Collaborative Studies,2018
boston road,BX,13820,Bronx International High School,2018
boynton avenue,BX,14220,High School of World Cultures,2018
boynton avenue,BX,14220,The Metropolitan Soundview High School,2018
boynton avenue,BX,14220,Pan American International High School at Monroe,2018
brook avenue,BX,15720,International Community High School,2018
crotona avenue,BX,22320,High School for Energy and Technology,2018
crotona avenue,BX,22320,Bronx Academy for Software Engineering (BASE),2018
crotona avenue,BX,22320,Crotona International High School,2018
east 145 street,BX,26010,M.S. 223 The Laboratory School of Finance and Technology,2018
east 145 street,BX,26010,South Bronx Preparatory: A College Board School,2018
east 151 street,BX,26190,Alfred E. Smith Career and Technical Education High School,2018
east 151 street,BX,26190,Bronx Design and Construction Academy,2018
east 163 street,BX,26550,"Bronx School for Law, Government and Justice",2018
east 164 street,BX,26580,Bronx Early College Academy for Teaching & Learning,2018
east 172 street,BX,26820,Bronx High School of Business,2018
east 172 street,BX,26820,Bronx High School for Medical Science,2018
east 172 street,BX,26820,The Cinema School,2018
east 172 street,BX,26820,Mott Hall V,2018
east 172 street,BX,26820,DreamYard Preparatory School,2018
east 172 street,BX,26820,Claremont International High School,2018
east 172 street,BX,26820,Bronx Collegiate Academy,2018
east 172 street,BX,26820,New Directions Secondary School,2018
east 180 street,BX,27060,Wings Academy,2018
east 228 street,BX,28470,Academy for Scholarship and Entrepreneurship: A College Board School,2018
east 228 street,BX,28470,The Bronxwood Preparatory Academy,2018
east 228 street,BX,28470,New World High School,2018
east fordham road,BX,29220,Fordham Leadership Academy,2018
east fordham road,BX,29220,West Bronx Academy for the Future,2018
east fordham road,BX,29220,Belmont Preparatory High School,2018
east fordham road,BX,29220,Bronx High School for Law and Community Service,2018
east fordham road,BX,29220,Fordham High School for the Arts,2018
east fordham road,BX,29220,Knowledge and Power Preparatory Academy International High School (KAPPA),2018
east gun hill road,BX,29320,High School for Contemporary Arts,2018
east gun hill road,BX,29320,Bronx Academy of Health Careers,2018
east gun hill road,BX,29320,Bronx Aerospace High School,2018
east gun hill road,BX,29320,Bronx Lab School,2018
east gun hill road,BX,29320,High School of Computers and Technology,2018
east gun hill road,BX,29320,Bronx High School for Writing and Communication Arts,2018
east tremont avenue,BX,29620,Pelham Lab High School,2018
east tremont avenue,BX,29620,Schuylerville Preparatory High School,2018
east tremont avenue,BX,29620,Bronx River High School,2018
east tremont avenue,BX,29620,Herbert H. Lehman High School,2018
east tremont avenue,BX,29620,Westchester Square Academy,2018
east tremont avenue,BX,29620,Renaissance High School for Musical Theater & Technology,2018
fulton avenue,BX,34220,Eximius College Preparatory Academy: A College Board School,2018
fulton avenue,BX,34220,Bronx Center for Science and Mathematics,2018
gerard avenue,BX,35020,Health Opportunities High School,2018
gerard avenue,BX,35020,Community School for Social Justice,2018
goulden avenue,BX,36060,High School of American Studies at Lehman College,2018
home street,BX,40520,Bronx Career and College Preparatory High School,2018
home street,BX,40520,Bronx Latin,2018
jennings street,BX,42720,Fannie Lou Hamer Freedom High School,2018
jerome avenue,BX,42820,Comprehensive Model School Project M.S. 327,2018
lafayette avenue,BX,45120,Gotham Collaborative High School,2018
lafayette avenue,BX,45120,Antonia Pantoja Preparatory Academy: A College Board School,2018
lafayette avenue,BX,45120,Millennium Art Academy,2018
lafayette avenue,BX,45120,Bronx Bridges High School,2018
lafayette avenue,BX,45120,Bronx Compass High School,2018
longwood avenue,BX,46820,Longwood Preparatory Academy,2018
longwood avenue,BX,46820,Holcombe L. Rucker School of Community Research,2018
macombs road,BX,48220,Academy for Language and Technology,2018
mohegan avenue,BX,51520,Urban Assembly School for Wildlife Conservation,2018
morris avenue,BX,52120,The Urban Assembly Bronx Academy of Letters,2018
morris avenue,BX,52120,Young Women's Leadership School of the Bronx (TYWLS),2018
reservoir avenue,BX,60820,Discovery High School,2018
reservoir avenue,BX,60820,High School for Teaching and the Professions,2018
reservoir avenue,BX,60820,"Celia Cruz Bronx High School of Music, The",2018
reservoir avenue,BX,60820,Kingsbridge International High School,2018
reservoir avenue,BX,60820,International School for Liberal Arts,2018
simpson street,BX,65020,Bronx Studio School for Writers and Artists,2018
southern boulevard,BX,65320,East Bronx Academy for the Future,2018
southern boulevard,BX,65320,"H.E.R.O. High (Health, Education, and Research Occupations High School)",2018
southern boulevard,BX,65320,Crotona Academy High School,2018
st anns avenue,BX,65620,Mott Haven Village Preparatory High School,2018
st anns avenue,BX,65620,University Heights Secondary School,2018
story avenue,BX,66920,"Felisa Rincon de Gautier Institute for Law and Public Policy, The",2018
terrace view avenue,BX,67880,Bronx School of Law and Finance,2018
terrace view avenue,BX,67880,Bronx Theatre High School,2018
terrace view avenue,BX,67880,Bronx Engineering and Technology Academy,2018
terrace view avenue,BX,67880,Marble Hill High School for International Studies,2018
tibbett avenue,BX,68320,In-Tech Academy (M.S. / High School 368),2018
tinton avenue,BX,69020,School for Tourism and Hospitality,2018
webster avenue,BX,73720,Bronx Leadership Academy High School,2018
webster avenue,BX,73720,Theater Arts Production Company School (TAPCo),2018
west 205 street,BX,74880,Bronx High School of Science,2018
west 231 street,BX,74960,"The Marie Curie School for Medicine, Nursing, and Health Professions",2018
west 237 street,BX,75110,Riverdale / Kingsbridge Academy (Middle School / High School 141) (RKA),2018
white plains road,BX,77150,Women's Academy of Excellence,2018
white plains road,BX,77150,"Archimedes Academy for Math, Science and Technology Applications",2018
7 avenue,K,05780,Secondary School for Journalism,2018
7 avenue,K,05780,Park Slope Collegiate,2018
7 avenue,K,05780,John Jay School for Law,2018
7 avenue,K,05780,Millennium Brooklyn High School,2018
16 avenue,K,06680,Urban Assembly School for Criminal Justice,2018
20 avenue,K,07080,Franklin Delano Roosevelt High School,2018
21 avenue,K,07230,Brooklyn Studio Secondary School,2018
35 street,K,08330,Sunset Park High School,2018
67 street,K,09930,High School of Telecommunication Arts and Technology,2018
80 street,K,10580,New Utrecht High School,2018
adams street,K,11800,Urban Assembly Institute of Math and Science for Young Women,2018
adams street,K,11800,The Urban Assembly School for Law and Justice,2018
albany avenue,K,12130,Academy for Health Careers,2018
albany avenue,K,12130,Pathways in Technology Early College High School (P-TECH),2018
avenue l,K,14180,Edward R. Murrow High School,2018
avenue x,K,14780,Origins High School,2018
avenue x,K,14780,John Dewey High School,2018
avenue x,K,14780,Professional Pathways High School,2018
baltic street,K,15180,Cobble Hill School of American Studies,2018
baltic street,K,15180,Digital Arts and Cinema Technology High School,2018
baltic street,K,15180,The Boerum Hill School for International Studies,2018
bedford avenue,K,18630,Bedford Academy High School,2018
bedford avenue,K,18630,Automotive High School,2018
bedford avenue,K,18630,James Madison High School,2018
bedford avenue,K,18630,Midwood High School,2018
benson avenue,K,19030,Life Academy High School for Film and Music,2018
benson avenue,K,19030,Kingsborough Early College School,2018
benson avenue,K,19030,High School of Sports Management,2018
benson avenue,K,19030,Expeditionary Learning School for Community Leaders,2018
benson avenue,K,19030,International High School at Lafayette,2018
bergen street,K,19230,Brooklyn Collegiate: A College Board School,2018
brighton 4 road,K,21850,William E. Grady Career and Technical Education High School,2018
bristol street,K,23130,Teachers Preparatory High School,2018
bristol street,K,23130,Frederick Douglass Academy VII High School,2018
broadway,K,23230,Brooklyn High School for Law and Technology,2018
bushwick avenue,K,23930,Young Women's Leadership School of Brooklyn (TYWLS),2018
bushwick avenue,K,23930,Bushwick Leaders High School for Academic Excellence,2018
carroll street,K,24830,Medgar Evers College Preparatory School,2018
classon avenue,K,26730,Brooklyn School for Music & Theatre,2018
classon avenue,K,26730,Brooklyn Academy of Science and the Environment (BASE),2018
classon avenue,K,26730,Clara Barton High School,2018
classon avenue,K,26730,The High School for Global Citizenship,2018
classon avenue,K,26730,International High School at Prospect Heights,2018
clinton avenue,K,27430,Benjamin Banneker Academy,2018
coney island avenue,K,28830,Brooklyn College Academy,2018
dean street,K,31830,Brooklyn High School of the Arts,2018
dekalb avenue,K,31530,EBC High School for Public Service-Bushwick,2018
eastern parkway,K,38430,W.E.B. DuBois Academic High School,2018
elton street,K,39230,Academy for Young Writers,2018
elton street,K,39230,Spring Creek Community School,2018
flatbush avenue,K,40930,Academy for College Preparation and Career Exploration: A College Board School,2018
flatbush avenue,K,40930,Academy of Hospitality and Tourism,2018
flatbush avenue,K,40930,High School for Service & Learning at Erasmus,2018
flatbush avenue,K,40930,"Science, Technology and Research Early College High School at Erasmus (STAR)",2018
flatbush avenue,K,40930,High School for Youth and Community Development at Erasmus,2018
flatbush avenue extension,K,40830,Urban Assembly High School of Music and Art,2018
flatbush avenue extension,K,40830,"Science Skills Center High School for Science, Technology and the Creative Arts",2018
flatbush avenue extension,K,40830,Brooklyn International High School,2018
flatlands avenue,K,41030,Brooklyn Theatre Arts High School,2018
flatlands avenue,K,41030,Academy for Conservation and the Environment,2018
flatlands avenue,K,41030,Brooklyn Generation School,2018
flatlands avenue,K,41030,Victory Collegiate High School,2018
fountain avenue,K,41830,"The School for Classics: An Academy of Thinkers, Writers and Performers",2018
fulton street,K,42730,Nelson Mandela High School,2018
fulton street,K,42730,Boys and Girls High School,2018
graham avenue,K,44930,Lyons Community School,2018
graham avenue,K,44930,"Brooklyn Latin School, The",2018
graham avenue,K,44930,"Williamsburg High School of Arts and Technology, The",2018
grand avenue,K,45030,ACORN Community High School,2018
grand street,K,45130,East Williamsburg Scholars Academy,2018
grand street,K,45130,"The High School for Enterprise, Business and Technology",2018
grand street,K,45130,PROGRESS High School for Professional Careers,2018
henry street,K,48830,Brooklyn Secondary School for Collaborative Studies,2018
herkimer street,K,49130,Eagle Academy for Young Men II,2018
heyward street,K,49530,Juan Morel Campos Secondary School,2018
hooper street,K,50530,El Puente Academy for Peace and Justice,2018
irving avenue,K,52130,The Brooklyn School for Math and Research (B-SMART),2018
irving avenue,K,52130,"Brooklyn School for Social Justice, The",2018
irving avenue,K,52130,"Academy of Urban Planning and Engineering, The",2018
irving avenue,K,52130,Academy for Environmental Leadership,2018
jamaica avenue,K,52730,Brooklyn Lab School,2018
jamaica avenue,K,52730,The Urban Assembly School for Collaborative Healthcare,2018
jamaica avenue,K,52730,Cypress Hills Collegiate Preparatory School,2018
jamaica avenue,K,52730,Academy of Innovative Technology,2018
jamaica avenue,K,52730,Multicultural High School,2018
kingston avenue,K,54070,High School for Public Service: Heroes of Tomorrow,2018
kingston avenue,K,54070,Brooklyn Institute for Liberal Arts (BILA),2018
kingston avenue,K,54070,The School for Human Rights,2018
linden boulevard,K,56230,East New York Family Academy,2018
north 6 street,K,66230,Brooklyn Preparatory High School,2018
north 6 street,K,66230,Williamsburg Preparatory School,2018
north 6 street,K,66230,Williamsburg High School for Architecture and Design,2018
ocean parkway,K,67730,Abraham Lincoln High School,2018
palmetto street,K,69030,All City Leadership Secondary School,2018
park avenue,K,69230,Dr. Susan S. McKinney Secondary School of the Arts,2018
pennsylvania avenue,K,70330,FDNY - Captain Vernon A. Richards High School for Fire and Life Safety,2018
pennsylvania avenue,K,70330,World Academy for Total Community Health High School (WATCH),2018
pennsylvania avenue,K,70330,W. H. Maxwell Career and Technical Education High School,2018
pennsylvania avenue,K,70330,High School for Civil Rights,2018
pennsylvania avenue,K,70330,Performing Arts and Technology High School,2018
ralph avenue,K,73110,Gotham Professional Arts Academy,2018
rockaway avenue,K,73470,Metropolitan Diploma Plus High School,2018
rockaway parkway,K,73480,High School for Medical Professions,2018
rockaway parkway,K,73480,Urban Action Academy,2018
rockaway parkway,K,73480,High School for Innovation in Advertising and Media,2018
schermerhorn street,K,75530,Brooklyn Frontiers High School,2018
schermerhorn street,K,75530,Khalil Gibran International Academy,2018
shore boulevard,K,76930,Leon M. Goldstein High School for the Sciences,2018
shore road,K,77130,Fort Hamilton High School,2018
stuyvesant avenue,K,82930,"Brooklyn Academy of Global Finance, The",2018
tilden avenue,K,85530,Cultural Academy for the Arts and Sciences,2018
tilden avenue,K,85530,Kurt Hahn Expeditionary Learning School,2018
tilden avenue,K,85530,It Takes a Village Academy,2018
wells street,K,90460,Transit Tech Career and Technical Education High School,2018
west 19 street,K,91330,Liberation Diploma Plus High School,2018
west avenue,K,92230,Rachel Carson High School for Coastal Studies,2018
willoughby avenue,K,93230,Brooklyn Community Arts & Media High School (BCAM),2018
28 street,Q,07640,Energy Tech High School,2018
30 place,Q,07850,"Robert F. Wagner, Jr. Secondary School for Arts and Technology",2018
31 avenue,Q,07990,William Cullen Bryant High School,2018
35 avenue,Q,08590,Frank Sinatra School of the Arts High School,2018
36 avenue,Q,08690,Baccalaureate School for Global Education,2018
36 street,Q,08740,Aviation Career & Technical Education High School,2018
41 avenue,Q,09540,Academy of American Studies,2018
41 avenue,Q,09540,Newcomers High School,2018
44 road,Q,10040,Information Technology High School,2018
47 avenue,Q,10440,Queens Vocational and Technical High School,2018
51 avenue,Q,10890,Academy for Careers in Television and Film (ACTV),2018
74 street,Q,15640,Maspeth High School,2018
76 road,Q,15940,"Queens School of Inquiry, The",2018
84 avenue,Q,17040,Thomas A. Edison Career and Technical Education High School,2018
87 road,Q,17690,"Young Women's Leadership School, Queens (TYWLS)",2018
90 street,Q,18240,Newtown High School,2018
90 street,Q,18240,International High School for Health Sciences,2018
91 avenue,Q,18290,Cambria Heights Academy,2018
94 street,Q,18740,Civic Leadership Academy,2018
94 street,Q,18740,Pan American International High School,2018
104 street,Q,19740,"High School for Construction Trades, Engineering and Architecture",2018
110 street,Q,20390,Forest Hills High School,2018
114 street,Q,20740,Richmond Hill High School,2018
117 street,Q,21040,Epic High School - North,2018
159 street,Q,23940,Queens High School for the Sciences at York College,2018
167 street,Q,24390,York Early College Academy,2018
192 street,Q,25440,World Journalism Preparatory: A College Board School,2018
204 street,Q,26040,Pathways College Preparatory School: A College Board School,2018
223 street,Q,26990,Benjamin N. Cardozo High School,2018
baisley boulevard,Q,29090,August Martin High School,2018
barclay avenue,Q,29290,Flushing International High School,2018
bay 25 street,Q,29569,Frederick Douglass Academy VI High School,2018
bay 25 street,Q,29569,Academy of Medical Technology: A College Board School,2018
bay 25 street,Q,29569,"Queens High School for Information, Research, and Technology",2018
beach 104 street,Q,33610,Scholars' Academy,2018
beach channel drive,Q,35290,Rockaway Collegiate High School,2018
beach channel drive,Q,35290,Rockaway Park High School for Environmental Sustainability,2018
beach channel drive,Q,35290,Channel View School for Research,2018
broadway,Q,37290,Long Island City High School,2018
colden street,Q,39490,East-West School of International Studies,2018
commonwealth boulevard,Q,39635,"Queens High School of Teaching, Liberal Arts and the Sciences",2018
corporal kennedy street,Q,40190,Bayside High School,2018
goethals avenue,Q,47090,Queens Gateway to Health Sciences Secondary School,2018
gothic drive,Q,47195,Queens Collegiate: A College Board School,2018
gothic drive,Q,47195,Jamaica Gateway to the Sciences,2018
gothic drive,Q,47195,Hillside Arts & Letters Academy,2018
gothic drive,Q,47195,High School for Community Leadership,2018
guy r brewer boulevard,Q,57190,High School for Law Enforcement and Public Safety,2018
highland avenue,Q,49490,Hillcrest High School,2018
hillside avenue,Q,49690,Business Technology Early College High School (BTECH),2018
hillside avenue,Q,49690,Martin Van Buren High School,2018
himrod street,Q,49790,Grover Cleveland High School,2018
lafayette street,Q,52510,Robert H. Goddard High School of Communication Arts and Technology,2018
linden boulevard,Q,53890,Eagle Academy for Young Men III,2018
main street,Q,54580,John Bowne High School,2018
melbourne avenue,Q,55390,Townsend Harris High School,2018
metropolitan avenue,Q,55690,Metropolitan Expeditionary Learning School,2018
metropolitan avenue,Q,55690,Queens Metropolitan High School,2018
newtown avenue,Q,57390,"Young Women's Leadership School, Astoria (TYWLS)",2018
parsons boulevard,Q,58590,Robert F. Kennedy Community High School,2018
rockaway boulevard,Q,60810,Epic High School - South,2018
rockaway boulevard,Q,60810,John Adams High School,2018
springfield boulevard,Q,63290,Queens Preparatory Academy,2018
springfield boulevard,Q,63290,George Washington Carver High School for the Sciences,2018
springfield boulevard,Q,63290,Excelsior Preparatory High School,2018
springfield boulevard,Q,63290,Preparatory Academy for Writers: A College Board School,2018
thomson avenue,Q,65120,High School of Applied Communication,2018
thomson avenue,Q,65120,Academy of Finance and Enterprise,2018
thomson avenue,Q,65120,Bard High School Early College Queens,2018
union street,Q,65490,Veritas Academy,2018
union street,Q,65490,Flushing High School,2018
union street,Q,65490,Queens High School for Language Studies,2018
utopia parkway,Q,65690,Francis Lewis High School,2018
van dam street,Q,65810,Middle College High School at LaGuardia Community College,2018
van dam street,Q,65810,International High School at LaGuardia Community College,2018
clawson street,R,23100,Staten Island Technical High School,2018
essex drive,R,27675,Gaynor McCown Expeditionary Learning School,2018
essex drive,R,27675,CSI High School for International Studies,2018
gordon street,R,29900,The Eagle Academy for Young Men of Staten Island,2018
hamilton avenue,R,31400,Curtis High School,2018
luten avenue,R,37280,Tottenville High School,2018
manor road,R,37850,Susan E. Wagner High School,2018
new dorp lane,R,39800,New Dorp High School,2018
ocean terrace,R,41320,The Michael J. Petrides School,2018
st josephs avenue,R,48985,Port Richmond High School,2018
st marks place,R,49100,Ralph R. McKee Career and Technical Education High School,2018
7 avenue,NY,10610,Frederick Douglass Academy,2019
10 avenue,NY,11010,Independence High School,2019
academy street,NY,11310,High School for Excellence and Innovation,2019
academy street,NY,11310,Inwood Early College for Health and Information Technologies,2019
amsterdam avenue,NY,11710,Fiorello H. LaGuardia High School of Music & Art and Performing Arts,2019
amsterdam avenue,NY,11710,Manhattan / Hunter Science High School,2019
amsterdam avenue,NY,11710,Special Music School,2019
amsterdam avenue,NY,11710,The Urban Assembly School for Media Studies,2019
amsterdam avenue,NY,11710,High School of Arts and Technology,2019
amsterdam avenue,NY,11710,"High School for Law, Advocacy and Community Justice",2019
amsterdam avenue,NY,11710,The Maxine Greene High School for Imaginative Inquiry,2019
audubon avenue,NY,12010,High School for Law and Public Service,2019
audubon avenue,NY,12010,High School for Media and Communications,2019
audubon avenue,NY,12010,High School for Health Careers and Sciences,2019
audubon avenue,NY,12010,The College Academy,2019
avenue of the americas,NY,10510,NYC iSchool,2019
avenue of the americas,NY,10510,Chelsea Career and Technical Education High School,2019
beaver street,NY,12950,Richard R. Green High School of Teaching,2019
broad street,NY,13590,Millennium High School,2019
broadway,NY,13610,The Urban Assembly School of Business for Young Women,2019
broadway,NY,13610,City College Academy of the Arts,2019
chambers street,NY,14710,Stuyvesant High School,2019
columbia street,NY,15610,"New Explorations into Science, Technology and Math High School (NEST+m)",2019
convent avenue,NY,15910,"High School for Mathematics, Science and Engineering at City College (HSMSE)",2019
east 12 street,NY,17230,East Side Community School,2019
east 15 street,NY,17290,Institute for Collaborative Education (ICE),2019
east 15 street,NY,17290,High School for Health Professions and Human Services,2019
east 15 street,NY,17290,The Clinton School,2019
east 22 street,NY,17430,School of the Future High School,2019
east 23 street,NY,17450,47 The American Sign Language and English Secondary School,2019
east 25 street,NY,17490,Baruch College Campus High School,2019
east 33 street,NY,17650,Manhattan Academy for Arts & Language,2019
east 33 street,NY,17650,Unity Center for Urban Technologies,2019
east 33 street,NY,17650,Murray Hill Academy,2019
east 56 street,NY,18110,Art and Design High School,2019
east 67 street,NY,18330,Talent Unlimited High School,2019
east 67 street,NY,18330,Vanguard High School,2019
east 67 street,NY,18330,Manhattan International High School,2019
east 76 street,NY,18510,Eleanor Roosevelt High School,2019
east 96 street,NY,18890,Life Sciences Secondary School,2019
east 105 street,NY,19070,Park East High School,2019
east 106 street,NY,19090,Young Women's Leadership School (TYWLS),2019
east 109 street,NY,19150,Esperanza Preparatory Academy,2019
east houston street,NY,19890,Bard High School Early College,2019
edgecombe avenue,NY,19990,Mott Hall High School,2019
edgecombe avenue,NY,19990,Eagle Academy for Young Men of Harlem,2019
grand street,NY,21690,Essex Street Academy,2019
grand street,NY,21690,High School for Dual Language and Asian Studies,2019
grand street,NY,21690,New Design High School,2019
grand street,NY,21690,Lower Manhattan Arts Academy,2019
grand street,NY,21690,The Urban Assembly Academy of Government and Law,2019
henry street,NY,22690,Orchard Collegiate Academy,2019
hester street,NY,22890,Pace High School,2019
irving place,NY,23390,The High School For Language and Diplomacy,2019
irving place,NY,23390,Gramercy Arts High School,2019
irving place,NY,23390,International High School at Union Square,2019
irving place,NY,23390,Academy for Software Engineering (AFSE),2019
irving place,NY,23390,Union Square Academy for Health Sciences,2019
lexington avenue,NY,24890,"Heritage School, The",2019
madison avenue,NY,25390,Central Park East High School,2019
madison avenue,NY,25390,The Urban Assembly School for Global Commerce,2019
monroe street,NY,26390,University Neighborhood High School,2019
pearl street,NY,28490,The Urban Assembly School for Emergency Management,2019
pearl street,NY,28490,Urban Assembly Maker Academy,2019
pearl street,NY,28490,Manhattan Early College School for Advertising,2019
pearl street,NY,28490,Murry Bergtraum High School for Business Careers,2019
pleasant avenue,NY,29090,Manhattan Center for Science and Mathematics,2019
stanton street,NY,31490,Marta Valle High School,2019
trinity place,NY,32615,Leadership and Public Service High School,2019
trinity place,NY,32615,High School of Economics and Finance,2019
west 14 street,NY,34050,Harvest Collegiate High School,2019
west 17 street,NY,34110,N.Y.C. Lab School for Collaborative Studies,2019
west 17 street,NY,34110,N.Y.C. Museum School,2019
west 18 street,NY,34130,Hudson High School of Learning Technologies,2019
west 18 street,NY,34130,Humanities Preparatory Academy,2019
west 18 street,NY,34130,Manhattan Business Academy,2019
west 18 street,NY,34130,Landmark High School,2019
west 18 street,NY,34130,Quest to Learn,2019
west 22 street,NY,34210,Manhattan Village Academy,2019
west 24 street,NY,34250,The High School of Fashion Industries,2019
west 43 street,NY,34630,Repertory Company High School for Theatre Arts,2019
west 44 street,NY,34650,Beacon High School,2019
west 46 street,NY,34690,Jacqueline Kennedy Onassis High School,2019
west 48 street,NY,34730,Professional Performing Arts High School (PPAS),2019
west 49 street,NY,34750,Urban Assembly Gateway School for Technology,2019
west 49 street,NY,34750,Stephen T. Mather Building Arts & Craftsmanship High School,2019
west 49 street,NY,34750,Business of Sports School (BOSS),2019
west 50 street,NY,34770,The Facing History School,2019
west 50 street,NY,34770,The Urban Assembly School of Design and Construction,2019
west 50 street,NY,34770,High School of Hospitality Management,2019
west 50 street,NY,34770,Manhattan Bridges High School,2019
west 50 street,NY,34770,Food and Finance High School,2019
west 56 street,NY,34890,High School for Environmental Studies,2019
west 61 street,NY,34990,West End Secondary School,2019
west 84 street,NY,35450,Frank McCourt High School,2019
west 84 street,NY,35450,The Urban Assembly School for Green Careers,2019
west 84 street,NY,35450,The Global Learning Collaborative,2019
west 114 street,NY,36050,Wadleigh Secondary School for the Performing & Visual Arts,2019
west 114 street,NY,36050,Frederick Douglass Academy II Secondary School,2019
west 123 street,NY,36230,Columbia Secondary School,2019
west 129 street,NY,36350,Urban Assembly School for the Performing Arts,2019
west 135 street,NY,36470,Thurgood Marshall Academy for Learning and Social Change,2019
west 135 street,NY,36470,A. Philip Randolph Campus High School,2019
west 158 street,NY,36930,Community Health Academy of the Heights,2019
west 165 street,NY,37070,Gregorio Luperon High School for Science and Mathematics,2019
west 182 street,NY,37390,Washington Heights Expeditionary Learning School (WHEELS),2019
antin place,BX,08930,Bronx High School for the Visual Arts,2019
astor avenue,BX,09620,Pelham Preparatory Academy,2019
astor avenue,BX,09620,Collegiate Institute for Math and Science (CIMS),2019
astor avenue,BX,09620,High School of Language and Innovation,2019
astor avenue,BX,09620,Astor Collegiate Academy,2019
astor avenue,BX,09620,Bronxdale High School,2019
bathgate avenue,BX,11420,Mott Hall Bronx High School,2019
bathgate avenue,BX,11420,Validus Preparatory Academy,2019
bathgate avenue,BX,11420,The Urban Assembly School for Applied Math and Science,2019
baychester avenue,BX,11620,Bronx Health Sciences High School,2019
baychester avenue,BX,11620,Harry S Truman High School,2019
boston road,BX,13820,Explorations Academy,2019
boston road,BX,13820,High School for Violin and Dance,2019
boston road,BX,13820,School for Excellence,2019
boston road,BX,13820,Bronx Envision Academy,2019
boston road,BX,13820,Morris Academy for Collaborative Studies,2019
boston road,BX,13820,Bronx International High School,2019
boynton avenue,BX,14220,Pan American International High School at Monroe,2019
boynton avenue,BX,14220,High School of World Cultures,2019
boynton avenue,BX,14220,"Metropolitan Soundview High School, The",2019
brook avenue,BX,15720,International Community High School,2019
crotona avenue,BX,22320,High School for Energy and Technology,2019
crotona avenue,BX,22320,Bronx Academy for Software Engineering (BASE),2019
crotona avenue,BX,22320,Crotona International High School,2019
east 145 street,BX,26010,The Laboratory School of Finance and Technology,2019
east 145 street,BX,26010,South Bronx Preparatory: A College Board School,2019
east 151 street,BX,26190,Alfred E. Smith Career and Technical Education High School,2019
east 151 street,BX,26190,Bronx Design and Construction Academy,2019
east 163 street,BX,26550,"Bronx School for Law, Government and Justice",2019
east 164 street,BX,26580,Bronx Early College Academy for Teaching & Learning,2019
east 172 street,BX,26820,Bronx Collegiate Academy,2019
east 172 street,BX,26820,The Cinema School,2019
east 172 street,BX,26820,Bronx High School for Medical Science,2019
east 172 street,BX,26820,DreamYard Preparatory School,2019
east 172 street,BX,26820,Mott Hall V,2019
east 172 street,BX,26820,Bronx High School of Business,2019
east 172 street,BX,26820,New Directions Secondary School,2019
east 172 street,BX,26820,Claremont International High School,2019
east 180 street,BX,27060,Wings Academy,2019
east 228 street,BX,28470,The Bronxwood Preparatory Academy,2019
east 228 street,BX,28470,Academy for Scholarship and Entrepreneurship: A College Board School,2019
east 228 street,BX,28470,New World High School,2019
east fordham road,BX,29220,West Bronx Academy for the Future,2019
east fordham road,BX,29220,Fordham Leadership Academy,2019
east fordham road,BX,29220,Belmont Preparatory High School,2019
east fordham road,BX,29220,Bronx High School for Law and Community Service,2019
east fordham road,BX,29220,Knowledge and Power Preparatory Academy International High School (KAPPA),2019
east fordham road,BX,29220,Fordham High School for the Arts,2019
east gun hill road,BX,29320,Bronx Academy of Health Careers,2019
east gun hill road,BX,29320,Bronx Aerospace High School,2019
east gun hill road,BX,29320,High School of Computers and Technology,2019
east gun hill road,BX,29320,Bronx Lab School,2019
east gun hill road,BX,29320,High School for Contemporary Arts,2019
east gun hill road,BX,29320,Bronx High School for Writing and Communication Arts,2019
east tremont avenue,BX,29620,Westchester Square Academy,2019
east tremont avenue,BX,29620,Renaissance High School for Musical Theater and the Arts,2019
east tremont avenue,BX,29620,Pelham Lab High School,2019
east tremont avenue,BX,29620,Schuylerville Preparatory High School,2019
east tremont avenue,BX,29620,Herbert H. Lehman High School,2019
east tremont avenue,BX,29620,Bronx River High School,2019
fulton avenue,BX,34220,Eximius College Preparatory Academy: A College Board School,2019
fulton avenue,BX,34220,Bronx Center for Science and Mathematics,2019
gerard avenue,BX,35020,Community School for Social Justice,2019
gerard avenue,BX,35020,Health Opportunities High School,2019
goulden avenue,BX,36060,High School of American Studies at Lehman College,2019
home street,BX,40520,Bronx Latin,2019
home street,BX,40520,Bronx Career and College Preparatory High School,2019
jennings street,BX,42720,Fannie Lou Hamer Freedom High School,2019
jerome avenue,BX,42820,Comprehensive Model School Project M.S. 327,2019
lafayette avenue,BX,45120,Gotham Collaborative High School,2019
lafayette avenue,BX,45120,Antonia Pantoja Preparatory Academy: A College Board School,2019
lafayette avenue,BX,45120,Bronx Compass High School,2019
lafayette avenue,BX,45120,Bronx Bridges High School,2019
lafayette avenue,BX,45120,Millennium Art Academy,2019
longwood avenue,BX,46820,Longwood Preparatory Academy,2019
macombs road,BX,48220,Academy for Language and Technology,2019
morris avenue,BX,52120,Young Women's Leadership School of the Bronx (TYWLS),2019
morris avenue,BX,52120,The Urban Assembly Bronx Academy of Letters,2019
reservoir avenue,BX,60820,Kingsbridge International High School,2019
reservoir avenue,BX,60820,"Celia Cruz Bronx High School of Music, The",2019
reservoir avenue,BX,60820,High School for Teaching and the Professions,2019
reservoir avenue,BX,60820,International School for Liberal Arts,2019
reservoir avenue,BX,60820,Discovery High School,2019
simpson street,BX,65020,Bronx Studio School for Writers and Artists,2019
southern boulevard,BX,65320,East Bronx Academy for the Future,2019
southern boulevard,BX,65320,"H.E.R.O. High (Health, Education, and Research Occupations High School)",2019
st anns avenue,BX,65620,Mott Haven Village Preparatory High School,2019
st anns avenue,BX,65620,University Heights Secondary School,2019
terrace view avenue,BX,67880,Marble Hill High School for International Studies,2019
terrace view avenue,BX,67880,Bronx Theatre High School,2019
terrace view avenue,BX,67880,Bronx School of Law and Finance,2019
terrace view avenue,BX,67880,Bronx Engineering and Technology Academy,2019
tibbett avenue,BX,68320,In-Tech Academy (M.S. / High School 368),2019
tinton avenue,BX,69020,School for Tourism and Hospitality,2019
webster avenue,BX,73720,Theater Arts Production Company School (TAPCo),2019
webster avenue,BX,73720,Bronx Leadership Academy High School,2019
west 231 street,BX,74960,"The Marie Curie School for Medicine, Nursing, and Health Professions",2019
west 237 street,BX,75110,Riverdale / Kingsbridge Academy (Middle School / High School 141) (RKA),2019
white plains road,BX,77150,"Archimedes Academy for Math, Science and Technology Applications",2019
white plains road,BX,77150,Women's Academy of Excellence,2019
7 avenue,K,05780,Millennium Brooklyn High School,2019
7 avenue,K,05780,Park Slope Collegiate,2019
7 avenue,K,05780,John Jay School for Law,2019
7 avenue,K,05780,Secondary School for Journalism,2019
16 avenue,K,06680,Urban Assembly School for Criminal Justice,2019
20 avenue,K,07080,Franklin Delano Roosevelt High School,2019
21 avenue,K,07230,Brooklyn Studio Secondary School,2019
35 street,K,08330,Sunset Park High School,2019
67 street,K,09930,High School of Telecommunication Arts and Technology,2019
80 street,K,10580,New Utrecht High School,2019
adams street,K,11800,The Urban Assembly School for Law and Justice,2019
adams street,K,11800,Urban Assembly Institute of Math and Science for Young Women,2019
albany avenue,K,12130,Academy for Health Careers,2019
albany avenue,K,12130,Pathways in Technology Early College High School (P-TECH),2019
avenue l,K,14180,Edward R. Murrow High School,2019
avenue x,K,14780,Professional Pathways High School,2019
avenue x,K,14780,John Dewey High School,2019
avenue x,K,14780,Origins High School,2019
baltic street,K,15180,Digital Arts and Cinema Technology High School,2019
baltic street,K,15180,The Boerum Hill School for International Studies,2019
baltic street,K,15180,Cobble Hill School of American Studies,2019
bedford avenue,K,18630,James Madison High School,2019
bedford avenue,K,18630,Bedford Academy High School,2019
bedford avenue,K,18630,Midwood High School,2019
bedford avenue,K,18630,Automotive High School,2019
benson avenue,K,19030,Life Academy High School for Film and Music,2019
benson avenue,K,19030,Kingsborough Early College School,2019
benson avenue,K,19030,International High School at Lafayette,2019
benson avenue,K,19030,Expeditionary Learning School for Community Leaders,2019
benson avenue,K,19030,High School of Sports Management,2019
bergen street,K,19230,Brooklyn Collegiate: A College Board School,2019
brighton 4 road,K,21850,William E. Grady Career and Technical Education High School,2019
bristol street,K,23130,Frederick Douglass Academy VII High School,2019
bristol street,K,23130,Teachers Preparatory High School,2019
broadway,K,23230,Brooklyn High School for Law and Technology,2019
bushwick avenue,K,23930,Young Women's Leadership School of Brooklyn (TYWLS),2019
bushwick avenue,K,23930,Bushwick Leaders High School for Academic Excellence,2019
carroll street,K,24830,Medgar Evers College Preparatory School,2019
classon avenue,K,26730,International High School at Prospect Heights,2019
classon avenue,K,26730,Brooklyn Academy of Science and the Environment (BASE),2019
classon avenue,K,26730,The High School for Global Citizenship,2019
classon avenue,K,26730,Clara Barton High School,2019
classon avenue,K,26730,Brooklyn School for Music & Theatre,2019
clinton avenue,K,27430,Benjamin Banneker Academy,2019
coney island avenue,K,28830,Brooklyn College Academy,2019
dean street,K,31830,Brooklyn High School of the Arts,2019
dekalb avenue,K,31530,EBC High School for Public Service-Bushwick,2019
elton street,K,39230,Academy for Young Writers,2019
elton street,K,39230,Spring Creek Community School,2019
flatbush avenue,K,40930,Academy of Hospitality and Tourism,2019
flatbush avenue,K,40930,High School for Service & Learning at Erasmus,2019
flatbush avenue,K,40930,High School for Youth and Community Development at Erasmus,2019
flatbush avenue,K,40930,Academy for College Preparation and Career Exploration: A College Board School,2019
flatbush avenue,K,40930,"Science, Technology and Research Early College High School at Erasmus (STAR)",2019
flatbush avenue extension,K,40830,Urban Assembly High School of Music and Art,2019
flatbush avenue extension,K,40830,Brooklyn International High School,2019
flatbush avenue extension,K,40830,"Science Skills Center High School for Science, Technology and the Creative Arts",2019
flatlands avenue,K,41030,Victory Collegiate High School,2019
flatlands avenue,K,41030,Academy for Conservation and the Environment,2019
flatlands avenue,K,41030,Brooklyn Theatre Arts High School,2019
flatlands avenue,K,41030,Brooklyn Generation School,2019
fountain avenue,K,41830,School for Classics High School,2019
fulton street,K,42730,Nelson Mandela High School,2019
fulton street,K,42730,Boys and Girls High School,2019
graham avenue,K,44930,"Brooklyn Latin School, The",2019
graham avenue,K,44930,Lyons Community School,2019
graham avenue,K,44930,The Williamsburg High School of Arts and Technology,2019
grand avenue,K,45030,ACORN Community High School,2019
grand avenue,K,45030,Gotham Professional Arts Academy,2019
grand street,K,45130,East Williamsburg Scholars Academy,2019
grand street,K,45130,"The High School for Enterprise, Business and Technology",2019
grand street,K,45130,PROGRESS High School for Professional Careers,2019
henry street,K,48830,Brooklyn Collaborative Studies,2019
herkimer street,K,49130,Eagle Academy for Young Men II,2019
heyward street,K,49530,Juan Morel Campos Secondary School,2019
hooper street,K,50530,El Puente Academy for Peace and Justice,2019
irving avenue,K,52130,Academy for Environmental Leadership,2019
irving avenue,K,52130,"Brooklyn School for Math and Research (B-SMARt), The",2019
irving avenue,K,52130,The Academy of Urban Planning and Engineering,2019
irving avenue,K,52130,"Brooklyn School for Social Justice, The",2019
jamaica avenue,K,52730,The Urban Assembly School for Collaborative Healthcare,2019
jamaica avenue,K,52730,Academy of Innovative Technology,2019
jamaica avenue,K,52730,Cypress Hills Collegiate Preparatory School,2019
jamaica avenue,K,52730,Multicultural High School,2019
jamaica avenue,K,52730,Brooklyn Lab School,2019
kingston avenue,K,54070,The School for Human Rights,2019
kingston avenue,K,54070,Brooklyn Institute for Liberal Arts (BILA),2019
kingston avenue,K,54070,High School for Public Service: Heroes of Tomorrow,2019
linden boulevard,K,56230,East New York Family Academy,2019
north 6 street,K,66230,Brooklyn Preparatory High School,2019
north 6 street,K,66230,Williamsburg High School for Architecture and Design,2019
north 6 street,K,66230,Williamsburg Preparatory School,2019
ocean parkway,K,67730,Abraham Lincoln High School,2019
palmetto street,K,69030,All City Leadership Secondary School,2019
park avenue,K,69230,Dr. Susan S. McKinney Secondary School of the Arts,2019
pennsylvania avenue,K,70330,Performing Arts and Technology High School,2019
pennsylvania avenue,K,70330,W. H. Maxwell Career and Technical Education High School,2019
pennsylvania avenue,K,70330,World Academy for Total Community Health High School (WATCH),2019
pennsylvania avenue,K,70330,FDNY-Captain Vernon A. Richard High School for Fire and Life Safety,2019
pennsylvania avenue,K,70330,High School for Civil Rights,2019
rockaway avenue,K,73470,Metropolitan Diploma Plus High School,2019
rockaway parkway,K,73480,High School for Medical Professions,2019
rockaway parkway,K,73480,High School for Innovation in Advertising and Media,2019
rockaway parkway,K,73480,Urban Action Academy,2019
schermerhorn street,K,75530,Brooklyn Frontiers High School,2019
schermerhorn street,K,75530,Khalil Gibran International Academy,2019
shore boulevard,K,76930,Leon M. Goldstein High School for the Sciences,2019
shore road,K,77130,Fort Hamilton High School,2019
stuyvesant avenue,K,82930,The Brooklyn Academy of Global Finance,2019
tilden avenue,K,85530,It Takes a Village Academy,2019
tilden avenue,K,85530,Kurt Hahn Expeditionary Learning School,2019
tilden avenue,K,85530,Cultural Academy for the Arts and Sciences,2019
wells street,K,90460,Transit Tech Career and Technical Education High School,2019
west 19 street,K,91330,Liberation Diploma Plus High School,2019
west avenue,K,92230,Rachel Carson High School for Coastal Studies,2019
willoughby avenue,K,93230,Brooklyn Community Arts & Media High School (BCAM),2019
28 street,Q,07640,Energy Tech High School,2019
30 place,Q,07850,"Robert F. Wagner, Jr. Secondary School for Arts and Technology",2019
31 avenue,Q,07990,William Cullen Bryant High School,2019
35 avenue,Q,08590,Frank Sinatra School of the Arts High School,2019
36 avenue,Q,08690,Baccalaureate School for Global Education,2019
36 street,Q,08740,Aviation Career & Technical Education High School,2019
41 avenue,Q,09540,Academy of American Studies,2019
41 avenue,Q,09540,Newcomers High School,2019
44 road,Q,10040,Information Technology High School,2019
47 avenue,Q,10440,Queens Technical High School,2019
51 avenue,Q,10890,Academy for Careers in Television and Film (ACTV),2019
74 street,Q,15640,Maspeth High School,2019
76 road,Q,15940,"Queens School of Inquiry, The",2019
84 avenue,Q,17040,Thomas A. Edison Career and Technical Education High School,2019
87 road,Q,17690,"Young Women's Leadership School, Queens (TYWLS)",2019
90 street,Q,18240,International High School for Health Sciences,2019
90 street,Q,18240,Newtown High School,2019
91 avenue,Q,18290,Cambria Heights Academy,2019
94 street,Q,18740,Pan American International High School,2019
94 street,Q,18740,Civic Leadership Academy,2019
104 street,Q,19740,"High School for Construction Trades, Engineering and Architecture",2019
110 street,Q,20390,Forest Hills High School,2019
114 street,Q,20740,Richmond Hill High School,2019
117 street,Q,21040,Epic High School - North,2019
159 street,Q,23940,Queens High School for the Sciences at York College,2019
167 street,Q,24390,York Early College Academy,2019
192 street,Q,25440,World Journalism Preparatory: A College Board School,2019
204 street,Q,26040,Pathways College Preparatory School: A College Board School,2019
223 street,Q,26990,Benjamin N. Cardozo High School,2019
baisley boulevard,Q,29090,August Martin High School,2019
barclay avenue,Q,29290,Flushing International High School,2019
bay 25 street,Q,29569,"Queens High School for Information, Research, and Technology",2019
bay 25 street,Q,29569,Frederick Douglass Academy VI High School,2019
bay 25 street,Q,29569,Academy of Medical Technology: A College Board School,2019
beach 104 street,Q,33610,Scholars' Academy,2019
beach channel drive,Q,35290,Channel View School for Research,2019
beach channel drive,Q,35290,Rockaway Park High School for Environmental Sustainability,2019
beach channel drive,Q,35290,Rockaway Collegiate High School,2019
broadway,Q,37290,Long Island City High School,2019
colden street,Q,39490,East-West School of International Studies,2019
commonwealth boulevard,Q,39635,"Queens High School of Teaching, Liberal Arts and the Sciences",2019
corporal kennedy street,Q,40190,Bayside High School,2019
goethals avenue,Q,47090,Queens Gateway to Health Sciences Secondary School,2019
gothic drive,Q,47195,Jamaica Gateway to the Sciences,2019
gothic drive,Q,47195,High School for Community Leadership,2019
gothic drive,Q,47195,Hillside Arts & Letters Academy,2019
gothic drive,Q,47195,Queens Collegiate: A College Board School,2019
guy r brewer boulevard,Q,57190,High School for Law Enforcement and Public Safety,2019
highland avenue,Q,49490,Hillcrest High School,2019
hillside avenue,Q,49690,Martin Van Buren High School,2019
hillside avenue,Q,49690,Business Technology Early College High School (BTECH),2019
himrod street,Q,49790,Grover Cleveland High School,2019
lafayette street,Q,52510,Robert H. Goddard High School of Communication Arts and Technology,2019
linden boulevard,Q,53890,Eagle Academy for Young Men III,2019
main street,Q,54580,John Bowne High School,2019
melbourne avenue,Q,55390,Townsend Harris High School,2019
metropolitan avenue,Q,55690,Metropolitan Expeditionary Learning School,2019
metropolitan avenue,Q,55690,Queens Metropolitan High School,2019
newtown avenue,Q,57390,"Young Women's Leadership School, Astoria (TYWLS)",2019
parsons boulevard,Q,58590,Robert F. Kennedy Community High School,2019
rockaway boulevard,Q,60810,John Adams High School,2019
rockaway boulevard,Q,60810,Epic High School - South,2019
springfield boulevard,Q,63290,Queens Preparatory Academy,2019
springfield boulevard,Q,63290,Preparatory Academy for Writers: A College Board School,2019
springfield boulevard,Q,63290,Excelsior Preparatory High School,2019
springfield boulevard,Q,63290,George Washington Carver High School for the Sciences,2019
thomson avenue,Q,65120,Bard High School Early College Queens,2019
thomson avenue,Q,65120,High School of Applied Communication,2019
thomson avenue,Q,65120,Academy of Finance and Enterprise,2019
union street,Q,65490,Flushing High School,2019
union street,Q,65490,Queens High School for Language Studies,2019
union street,Q,65490,Veritas Academy,2019
utopia parkway,Q,65690,Francis Lewis High School,2019
van dam street,Q,65810,International High School at LaGuardia Community College,2019
van dam street,Q,65810,Middle College High School at LaGuardia Community College,2019
clawson street,R,23100,Staten Island Technical High School,2019
essex drive,R,27675,Gaynor McCown Expeditionary Learning School,2019
essex drive,R,27675,CSI High School for International Studies,2019
gordon street,R,29900,The Eagle Academy for Young Men of Staten Island,2019
hamilton avenue,R,31400,Curtis High School,2019
luten avenue,R,37280,Tottenville High School,2019
manor road,R,37850,Susan E. Wagner High School,2019
new dorp lane,R,39800,New Dorp High School,2019
ocean terrace,R,41320,The Michael J. Petrides School,2019
st josephs avenue,R,48985,Port Richmond High School,2019
st marks place,R,49100,Ralph R. McKee Career and Technical Education High School,2019
7 avenue,NY,10610,Frederick Douglass Academy,2020
10 avenue,NY,11010,Independence High School,2020
academy street,NY,11310,Inwood Early College for Health and Information Technologies,2020
academy street,NY,11310,High School for Excellence and Innovation,2020
amsterdam avenue,NY,11710,The Maxine Greene High School for Imaginative Inquiry,2020
amsterdam avenue,NY,11710,High School of Arts and Technology,2020
amsterdam avenue,NY,11710,The Urban Assembly School for Media Studies,2020
amsterdam avenue,NY,11710,"High School for Law, Advocacy and Community Justice",2020
amsterdam avenue,NY,11710,Fiorello H. LaGuardia High School of Music & Art and Performing Arts,2020
amsterdam avenue,NY,11710,Special Music School,2020
amsterdam avenue,NY,11710,Manhattan / Hunter Science High School,2020
audubon avenue,NY,12010,The College Academy,2020
audubon avenue,NY,12010,High School for Media and Communications,2020
audubon avenue,NY,12010,High School for Law and Public Service,2020
audubon avenue,NY,12010,High School for Health Careers and Sciences,2020
avenue of the americas,NY,10510,Chelsea Career and Technical Education High School,2020
avenue of the americas,NY,10510,NYC iSchool,2020
beaver street,NY,12950,Richard R. Green High School of Teaching,2020
broad street,NY,13590,Millennium High School,2020
broadway,NY,13610,The Urban Assembly School of Business for Young Women,2020
broadway,NY,13610,City College Academy of the Arts,2020
chambers street,NY,14710,Stuyvesant High School,2020
columbia street,NY,15610,"New Explorations into Science, Technology and Math High School (NEST+m)",2020
convent avenue,NY,15910,"High School for Math, Science and Engineering at City College (HSMSE)",2020
east 12 street,NY,17230,East Side Community School,2020
east 15 street,NY,17290,The Clinton School,2020
east 15 street,NY,17290,Institute for Collaborative Education (ICE),2020
east 15 street,NY,17290,High School for Health Professions and Human Services,2020
east 22 street,NY,17430,School of the Future High School,2020
east 23 street,NY,17450,47 The American Sign Language and English Secondary School,2020
east 25 street,NY,17490,Baruch College Campus High School,2020
east 33 street,NY,17650,Manhattan Academy for Arts & Language,2020
east 33 street,NY,17650,Unity Center for Urban Technologies,2020
east 33 street,NY,17650,Murray Hill Academy,2020
east 56 street,NY,18110,Art and Design High School,2020
east 67 street,NY,18330,Manhattan International High School,2020
east 67 street,NY,18330,Vanguard High School,2020
east 67 street,NY,18330,Talent Unlimited High School,2020
east 76 street,NY,18510,Eleanor Roosevelt High School,2020
east 96 street,NY,18890,Life Sciences Secondary School,2020
east 105 street,NY,19070,Park East High School,2020
east 106 street,NY,19090,Young Women's Leadership School (TYWLS),2020
east 109 street,NY,19150,Esperanza Preparatory Academy,2020
east houston street,NY,19890,Bard High School Early College,2020
edgecombe avenue,NY,19990,Eagle Academy for Young Men of Harlem,2020
edgecombe avenue,NY,19990,Mott Hall High School,2020
grand street,NY,21690,New Design High School,2020
grand street,NY,21690,Essex Street Academy,2020
grand street,NY,21690,High School for Dual Language and Asian Studies,2020
grand street,NY,21690,The Urban Assembly Academy of Government and Law,2020
grand street,NY,21690,Lower Manhattan Arts Academy,2020
henry street,NY,22690,Orchard Collegiate Academy,2020
hester street,NY,22890,Pace High School,2020
irving place,NY,23390,International High School at Union Square,2020
irving place,NY,23390,The High School for Language and Diplomacy,2020
irving place,NY,23390,Academy for Software Engineering (AFSE),2020
irving place,NY,23390,Gramercy Arts High School,2020
irving place,NY,23390,Union Square Academy for Health Sciences,2020
lexington avenue,NY,24890,"Heritage School, The",2020
madison avenue,NY,25390,The Urban Assembly School for Global Commerce,2020
madison avenue,NY,25390,Central Park East High School,2020
monroe street,NY,26390,University Neighborhood High School,2020
pearl street,NY,28490,Manhattan Early College School for Advertising,2020
pearl street,NY,28490,The Urban Assembly School for Emergency Management,2020
pearl street,NY,28490,Urban Assembly Maker Academy,2020
pearl street,NY,28490,Murry Bergtraum High School for Business Careers,2020
pleasant avenue,NY,29090,Manhattan Center for Science and Mathematics,2020
stanton street,NY,31490,Marta Valle High School,2020
trinity place,NY,32615,Leadership and Public Service High School,2020
trinity place,NY,32615,High School of Economics and Finance,2020
west 14 street,NY,34050,Harvest Collegiate High School,2020
west 17 street,NY,34110,N.Y.C. Museum School,2020
west 17 street,NY,34110,N.Y.C. Lab School for Collaborative Studies,2020
west 18 street,NY,34130,Quest to Learn,2020
west 18 street,NY,34130,Hudson High School of Learning Technologies,2020
west 18 street,NY,34130,Humanities Preparatory Academy,2020
west 18 street,NY,34130,Landmark High School,2020
west 18 street,NY,34130,Manhattan Business Academy,2020
west 22 street,NY,34210,Manhattan Village Academy,2020
west 24 street,NY,34250,The High School of Fashion Industries,2020
west 43 street,NY,34630,Repertory Company High School for Theatre Arts,2020
west 44 street,NY,34650,Beacon High School,2020
west 46 street,NY,34690,Jacqueline Kennedy Onassis High School,2020
west 48 street,NY,34730,Professional Performing Arts High School (PPAS),2020
west 49 street,NY,34750,Business of Sports School,2020
west 49 street,NY,34750,Urban Assembly Gateway School for Technology,2020
west 49 street,NY,34750,Stephen T. Mather Building Arts & Craftsmanship High School,2020
west 50 street,NY,34770,Manhattan Bridges High School,2020
west 50 street,NY,34770,High School of Hospitality Management,2020
west 50 street,NY,34770,The Facing History School,2020
west 50 street,NY,34770,Food and Finance High School,2020
west 50 street,NY,34770,The Urban Assembly School of Design and Construction,2020
west 56 street,NY,34890,High School for Environmental Studies,2020
west 61 street,NY,34990,West End Secondary School,2020
west 84 street,NY,35450,Frank McCourt High School,2020
west 84 street,NY,35450,The Urban Assembly School for Green Careers,2020
west 84 street,NY,35450,The Global Learning Collaborative,2020
west 114 street,NY,36050,Wadleigh Secondary School for the Performing & Visual Arts,2020
west 114 street,NY,36050,Frederick Douglass Academy II Secondary School,2020
west 123 street,NY,36230,Columbia Secondary School,2020
west 129 street,NY,36350,Urban Assembly School for the Performing Arts,2020
west 135 street,NY,36470,A. Philip Randolph Campus High School,2020
west 135 street,NY,36470,Thurgood Marshall Academy for Learning and Social Change,2020
west 158 street,NY,36930,Community Health Academy of the Heights,2020
west 165 street,NY,37070,Gregorio Luperon High School for Science and Mathematics,2020
west 182 street,NY,37390,Washington Heights Expeditionary Learning School (WHEELS),2020
antin place,BX,08930,Bronx High School for the Visual Arts,2020
astor avenue,BX,09620,Pelham Preparatory Academy,2020
astor avenue,BX,09620,Collegiate Institute for Math and Science (CIMS),2020
astor avenue,BX,09620,Bronxdale High School,2020
astor avenue,BX,09620,High School of Language and Innovation,2020
astor avenue,BX,09620,Astor Collegiate Academy,2020
bathgate avenue,BX,11420,Mott Hall Bronx High School,2020
bathgate avenue,BX,11420,Validus Preparatory Academy,2020
bathgate avenue,BX,11420,The Urban Assembly School for Applied Math and Science,2020
baychester avenue,BX,11620,Harry S Truman High School,2020
baychester avenue,BX,11620,Bronx Health Sciences High School,2020
boston road,BX,13820,High School for Violin and Dance,2020
boston road,BX,13820,Explorations Academy H.S.,2020
boston road,BX,13820,Bronx Envision Academy,2020
boston road,BX,13820,Morris Academy for Collaborative Studies,2020
boston road,BX,13820,Bronx International High School,2020
boston road,BX,13820,School for Excellence,2020
boynton avenue,BX,14220,The Metropolitan Soundview High School,2020
boynton avenue,BX,14220,Pan American International High School at Monroe,2020
boynton avenue,BX,14220,High School of World Cultures,2020
brook avenue,BX,15720,International Community High School,2020
crotona avenue,BX,22320,High School for Energy and Technology,2020
crotona avenue,BX,22320,Bronx Academy for Software Engineering (BASE),2020
crotona avenue,BX,22320,Crotona International High School,2020
east 145 street,BX,26010,The Laboratory School of Finance and Technology,2020
east 145 street,BX,26010,South Bronx Preparatory: A College Board School,2020
east 151 street,BX,26190,Bronx Design and Construction Academy,2020
east 151 street,BX,26190,Alfred E. Smith Career and Technical Education High School,2020
east 163 street,BX,26550,"Bronx School for Law, Government and Justice",2020
east 164 street,BX,26580,Bronx Early College Academy for Teaching & Learning,2020
east 172 street,BX,26820,Bronx High School for Medical Science,2020
east 172 street,BX,26820,Bronx High School of Business,2020
east 172 street,BX,26820,Dreamyard Preparatory School,2020
east 172 street,BX,26820,Bronx Collegiate Academy,2020
east 172 street,BX,26820,New Directions Secondary School,2020
east 172 street,BX,26820,Mott Hall V,2020
east 172 street,BX,26820,Claremont International High School,2020
east 172 street,BX,26820,The Cinema School,2020
east 180 street,BX,27060,Wings Academy,2020
east 228 street,BX,28470,New World High School,2020
east 228 street,BX,28470,Academy for Scholarship and Entrepreneurship: A College Board School,2020
east 228 street,BX,28470,The Bronxwood Preparatory Academy,2020
east fordham road,BX,29220,Belmont Preparatory High School,2020
east fordham road,BX,29220,West Bronx Academy for the Future,2020
east fordham road,BX,29220,Fordham Leadership Academy,2020
east fordham road,BX,29220,Knowledge and Power Preparatory Academy International High School (KAPPA),2020
east fordham road,BX,29220,Bronx High School for Law and Community Service,2020
east fordham road,BX,29220,Fordham High School for the Arts,2020
east gun hill road,BX,29320,Bronx High School for Writing and Communication Arts,2020
east gun hill road,BX,29320,High School for Contemporary Arts,2020
east gun hill road,BX,29320,Bronx Lab School,2020
east gun hill road,BX,29320,Bronx Academy of Health Careers,2020
east gun hill road,BX,29320,High School of Computers and Technology,2020
east gun hill road,BX,29320,Bronx Aerospace High School,2020
east tremont avenue,BX,29620,Pelham Lab High School,2020
east tremont avenue,BX,29620,Westchester Square Academy,2020
east tremont avenue,BX,29620,Herbert H. Lehman High School,2020
east tremont avenue,BX,29620,Renaissance High School for Musical Theater and the Arts,2020
east tremont avenue,BX,29620,Bronx River High School,2020
east tremont avenue,BX,29620,Schuylerville Preparatory High School,2020
fulton avenue,BX,34220,Bronx Center for Science and Mathematics,2020
fulton avenue,BX,34220,Eximius College Preparatory Academy: A College Board School,2020
gerard avenue,BX,35020,Health Opportunities High School,2020
gerard avenue,BX,35020,Community School for Social Justice,2020
goulden avenue,BX,36060,High School of American Studies at Lehman College,2020
home street,BX,40520,Bronx Career and College Preparatory High School,2020
home street,BX,40520,Bronx Latin,2020
jennings street,BX,42720,Fannie Lou Hamer Freedom High School,2020
jerome avenue,BX,42820,Comprehensive Model School Project M.S. 327,2020
lafayette avenue,BX,45120,Gotham Collaborative High School,2020
lafayette avenue,BX,45120,Millennium Art Academy,2020
lafayette avenue,BX,45120,Antonia Pantoja Preparatory Academy: A College Board School,2020
lafayette avenue,BX,45120,Bronx Compass High School,2020
lafayette avenue,BX,45120,Bronx Bridges High School,2020
longwood avenue,BX,46820,Longwood Preparatory Academy,2020
macombs road,BX,48220,Academy for Language and Technology,2020
morris avenue,BX,52120,The Urban Assembly Bronx Academy of Letters,2020
morris avenue,BX,52120,Young Women's Leadership School of the Bronx (TYWLS),2020
reservoir avenue,BX,60820,Discovery High School,2020
reservoir avenue,BX,60820,"Celia Cruz Bronx High School of Music, The",2020
reservoir avenue,BX,60820,High School for Teaching and the Professions,2020
reservoir avenue,BX,60820,Kingsbridge International High School,2020
reservoir avenue,BX,60820,International School for Liberal Arts,2020
simpson street,BX,65020,Bronx Studio School for Writers and Artists,2020
southern boulevard,BX,65320,"H.E.R.O. High (Health, Education, and Research Occupations High School)",2020
southern boulevard,BX,65320,East Bronx Academy for the Future,2020
st anns avenue,BX,65620,University Heights Secondary School,2020
st anns avenue,BX,65620,Mott Haven Village Preparatory High School,2020
terrace view avenue,BX,67880,Bronx Engineering and Technology Academy,2020
terrace view avenue,BX,67880,Marble Hill High School for International Studies,2020
terrace view avenue,BX,67880,Bronx School of Law and Finance,2020
terrace view avenue,BX,67880,Bronx Theatre High School,2020
tibbett avenue,BX,68320,In-Tech Academy (M.S. / High School 368),2020
tinton avenue,BX,69020,School for Tourism and Hospitality,2020
webster avenue,BX,73720,Bronx Leadership Academy High School,2020
webster avenue,BX,73720,Theatre Arts Production Company School,2020
west 231 street,BX,74960,"The Marie Curie School for Medicine, Nursing, and Health Professions",2020
west 237 street,BX,75110,Riverdale / Kingsbridge Academy (Middle School / High School 141) (RKA),2020
white plains road,BX,77150,"Archimedes Academy for Math, Science and Technology Applications",2020
white plains road,BX,77150,Women's Academy of Excellence,2020
7 avenue,K,05780,Park Slope Collegiate,2020
7 avenue,K,05780,John Jay School for Law,2020
7 avenue,K,05780,Cyberarts Studio Academy,2020
7 avenue,K,05780,Millennium Brooklyn High School,2020
16 avenue,K,06680,Urban Assembly School for Criminal Justice,2020
20 avenue,K,07080,Franklin Delano Roosevelt High School,2020
21 avenue,K,07230,Brooklyn Studio Secondary School,2020
35 street,K,08330,Sunset Park High School,2020
67 street,K,09930,High School of Telecommunication Arts and Technology,2020
80 street,K,10580,New Utrecht High School,2020
adams street,K,11800,Urban Assembly Institute of Math and Science for Young Women,2020
adams street,K,11800,The Urban Assembly School for Law and Justice,2020
albany avenue,K,12130,Pathways in Technology Early College High School (P-TECH),2020
albany avenue,K,12130,Academy for Health Careers,2020
avenue l,K,14180,Edward R. Murrow High School,2020
avenue x,K,14780,John Dewey High School,2020
avenue x,K,14780,Professional Pathways High School,2020
avenue x,K,14780,Origins High School,2020
baltic street,K,15180,Digital Arts and Cinema Technology High School,2020
baltic street,K,15180,Cobble Hill School of American Studies,2020
baltic street,K,15180,The Boerum Hill School for International Studies,2020
bedford avenue,K,18630,Midwood High School,2020
bedford avenue,K,18630,A-TECH High School,2020
bedford avenue,K,18630,James Madison High School,2020
bedford avenue,K,18630,Bedford Academy High School,2020
benson avenue,K,19030,High School of Sports Management,2020
benson avenue,K,19030,Life Academy High School for Film and Music,2020
benson avenue,K,19030,International High School at Lafayette,2020
benson avenue,K,19030,Kingsborough Early College School,2020
benson avenue,K,19030,Leaders High School,2020
bergen street,K,19230,Brooklyn Collegiate: A College Board School,2020
brighton 4 road,K,21850,William E. Grady Career and Technical Education High School,2020
bristol street,K,23130,Frederick Douglass Academy VII High School,2020
bristol street,K,23130,Teachers Preparatory High School,2020
broadway,K,23230,Brooklyn High School for Law and Technology,2020
bushwick avenue,K,23930,Bushwick Leaders High School for Academic Excellence,2020
bushwick avenue,K,23930,Young Women's Leadership School of Brooklyn (TYWLS),2020
carroll street,K,24830,Medgar Evers College Preparatory School,2020
classon avenue,K,26730,Brooklyn Academy of Science and the Environment (BASE),2020
classon avenue,K,26730,The High School for Global Citizenship,2020
classon avenue,K,26730,Brooklyn School for Music & Theatre,2020
classon avenue,K,26730,International High School at Prospect Heights,2020
classon avenue,K,26730,Clara Barton High School,2020
clinton avenue,K,27430,Benjamin Banneker Academy,2020
coney island avenue,K,28830,Brooklyn College Academy,2020
dean street,K,31830,Brooklyn High School of the Arts,2020
dekalb avenue,K,31530,EBC High School for Public Service - Bushwick,2020
elton street,K,39230,Spring Creek Community School,2020
elton street,K,39230,Academy for Young Writers,2020
flatbush avenue,K,40930,Academy for College Preparation and Career Exploration: A College Board School,2020
flatbush avenue,K,40930,High School for Youth and Community Development at Erasmus,2020
flatbush avenue,K,40930,High School for Service & Learning at Erasmus,2020
flatbush avenue,K,40930,Academy of Hospitality and Tourism,2020
flatbush avenue,K,40930,"Science, Technology and Research Early College High School at Erasmus (STAR)",2020
flatbush avenue extension,K,40830,"Science Skills Center High School for Science, Technology and the Creative Arts",2020
flatbush avenue extension,K,40830,Urban Assembly School for Music and Art,2020
flatbush avenue extension,K,40830,Brooklyn International High School,2020
flatlands avenue,K,41030,Academy for Conservation and the Environment,2020
flatlands avenue,K,41030,Victory Collegiate High School,2020
flatlands avenue,K,41030,Brooklyn Theatre Arts High School,2020
flatlands avenue,K,41030,Brooklyn Community High School for Excellence and Equity,2020
fountain avenue,K,41830,School for Classics High School,2020
fulton street,K,42730,Boys and Girls High School,2020
fulton street,K,42730,Nelson Mandela High School,2020
graham avenue,K,44930,The Williamsburg High School of Art and Technology,2020
graham avenue,K,44930,Lyons Community School,2020
graham avenue,K,44930,The Brooklyn Latin School,2020
grand avenue,K,45030,ACORN Community High School,2020
grand avenue,K,45030,Gotham Professional Arts Academy,2020
grand street,K,45130,PROGRESS High School for Professional Careers,2020
grand street,K,45130,"The High School for Enterprise, Business and Technology",2020
grand street,K,45130,East Williamsburg Scholars Academy,2020
henry street,K,48830,Brooklyn Collaborative Studies,2020
herkimer street,K,49130,Eagle Academy for Young Men II,2020
heyward street,K,49530,Juan Morel Campos Secondary School,2020
hooper street,K,50530,El Puente Academy for Peace and Justice,2020
irving avenue,K,52130,Academy for Excellence in Leadership,2020
irving avenue,K,52130,The Academy of Urban Planning and Engineering,2020
irving avenue,K,52130,The Brooklyn School for Math and Research,2020
irving avenue,K,52130,The Brooklyn School for Social Justice,2020
jamaica avenue,K,52730,Multicultural High School,2020
jamaica avenue,K,52730,Cypress Hills Collegiate Preparatory School,2020
jamaica avenue,K,52730,Brooklyn Lab School,2020
jamaica avenue,K,52730,Academy of Innovative Technology,2020
jamaica avenue,K,52730,The Urban Assembly School for Collaborative Healthcare,2020
kingston avenue,K,54070,High School for Public Service: Heroes of Tomorrow,2020
kingston avenue,K,54070,The School for Human Rights,2020
kingston avenue,K,54070,Brooklyn Institute for Liberal Arts (BILA),2020
north 6 street,K,66230,Williamsburg High School for Architecture and Design,2020
north 6 street,K,66230,Brooklyn Preparatory High School,2020
north 6 street,K,66230,Williamsburg Preparatory School,2020
ocean parkway,K,67730,Abraham Lincoln High School,2020
palmetto street,K,69030,All City Leadership Secondary School,2020
park avenue,K,69230,Dr. Susan S. McKinney Secondary School of the Arts,2020
pennsylvania avenue,K,70330,FDNY - Captain Vernon A. Richard High School for Fire and Life Safety,2020
pennsylvania avenue,K,70330,World Academy for Total Community Health High School (WATCH),2020
pennsylvania avenue,K,70330,W. H. Maxwell Career and Technical Education High School,2020
pennsylvania avenue,K,70330,Performing Arts and Technology High School,2020
pennsylvania avenue,K,70330,High School for Civil Rights,2020
pennsylvania avenue,K,70330,East New York Family Academy,2020
rockaway avenue,K,73470,Metropolitan Diploma Plus High School,2020
rockaway parkway,K,73480,Urban Action Academy,2020
rockaway parkway,K,73480,High School for Innovation in Advertising and Media,2020
rockaway parkway,K,73480,High School for Medical Professions,2020
schermerhorn street,K,75530,Khalil Gibran International Academy,2020
schermerhorn street,K,75530,Brooklyn Frontiers High School,2020
shore boulevard,K,76930,Leon M. Goldstein High School for the Sciences,2020
shore road,K,77130,Fort Hamilton High School,2020
stuyvesant avenue,K,82930,The Brooklyn Academy of Global Finance,2020
tilden avenue,K,85530,It Takes a Village Academy,2020
tilden avenue,K,85530,Kurt Hahn Expeditionary Learning School,2020
tilden avenue,K,85530,Cultural Academy for the Arts and Sciences,2020
wells street,K,90460,Transit Tech Career and Technical Education High School,2020
west 19 street,K,91330,Liberation Diploma Plus,2020
west avenue,K,92230,Rachel Carson High School for Coastal Studies,2020
willoughby avenue,K,93230,Brooklyn Community Arts & Media High School (BCAM),2020
28 street,Q,07640,Energy Tech High School,2020
30 place,Q,07850,"Robert F. Wagner, Jr. Secondary School for Arts and Technology",2020
31 avenue,Q,07990,William Cullen Bryant High School,2020
35 avenue,Q,08590,Frank Sinatra School of the Arts High School,2020
36 avenue,Q,08690,Baccalaureate School for Global Education,2020
36 street,Q,08740,Aviation Career & Technical Education High School,2020
41 avenue,Q,09540,Academy of American Studies,2020
41 avenue,Q,09540,Newcomers High School,2020
44 road,Q,10040,Information Technology High School,2020
47 avenue,Q,10440,Queens Technical High School,2020
51 avenue,Q,10890,Academy for Careers in Television and Film (ACTV),2020
74 street,Q,15640,Maspeth High School,2020
76 road,Q,15940,"Queens School of Inquiry, The",2020
84 avenue,Q,17040,Thomas A. Edison Career and Technical Education High School,2020
87 road,Q,17690,"Young Women's Leadership School, Queens (TYWLS)",2020
90 street,Q,18240,International High School for Health Sciences,2020
90 street,Q,18240,Newtown High School,2020
91 avenue,Q,18290,Cambria Heights Academy,2020
94 street,Q,18740,Pan American International High School,2020
94 street,Q,18740,Civic Leadership Academy,2020
104 street,Q,19740,"High School for Construction Trades, Engineering and Architecture",2020
110 street,Q,20390,Forest Hills High School,2020
114 street,Q,20740,Richmond Hill High School,2020
117 street,Q,21040,Epic High School - North,2020
159 street,Q,23940,Queens High School for the Sciences at York College,2020
167 street,Q,24390,York Early College Academy,2020
192 street,Q,25440,World Journalism Preparatory: A College Board School,2020
204 street,Q,26040,Pathways College Preparatory School: A College Board School,2020
223 street,Q,26990,Benjamin N. Cardozo High School,2020
baisley boulevard,Q,29090,August Martin High School,2020
barclay avenue,Q,29290,Flushing International High School,2020
bay 25 street,Q,29569,Frederick Douglass Academy VI High School,2020
bay 25 street,Q,29569,"Queens High School for Information, Research, and Technology",2020
bay 25 street,Q,29569,Academy of Medical Technology: A College Board School,2020
beach 104 street,Q,33610,Scholars' Academy,2020
beach channel drive,Q,35290,Channel View School for Research,2020
beach channel drive,Q,35290,Rockaway Park High School for Environmental Sustainability,2020
beach channel drive,Q,35290,Rockaway Collegiate High School,2020
broadway,Q,37290,Long Island City High School,2020
colden street,Q,39490,East-West School of International Studies,2020
commonwealth boulevard,Q,39635,"Queens High School of Teaching, Liberal Arts and the Sciences",2020
corporal kennedy street,Q,40190,Bayside High School,2020
goethals avenue,Q,47090,Queens Gateway to Health Sciences Secondary School,2020
gothic drive,Q,47195,Jamaica Gateway to the Sciences,2020
gothic drive,Q,47195,Queens Collegiate: A College Board School,2020
gothic drive,Q,47195,Hillside Arts & Letters Academy,2020
gothic drive,Q,47195,High School for Community Leadership,2020
guy r brewer boulevard,Q,57190,High School for Law Enforcement and Public Safety,2020
highland avenue,Q,49490,Hillcrest High School,2020
hillside avenue,Q,49690,Martin Van Buren High School,2020
hillside avenue,Q,49690,Business Technology Early College High School (BTECH),2020
himrod street,Q,49790,Grover Cleveland High School,2020
lafayette street,Q,52510,Robert H. Goddard High School of Communication Arts and Technology,2020
linden boulevard,Q,53890,Eagle Academy for Young Men III,2020
main street,Q,54580,John Bowne High School,2020
melbourne avenue,Q,55390,Townsend Harris High School,2020
metropolitan avenue,Q,55690,Queens Metropolitan High School,2020
metropolitan avenue,Q,55690,Metropolitan Expeditionary Learning School,2020
newtown avenue,Q,57390,"Young Women's Leadership School, Astoria (TYWLS)",2020
parsons boulevard,Q,58590,Robert F. Kennedy Community High School,2020
rockaway boulevard,Q,60810,Epic High School - South,2020
rockaway boulevard,Q,60810,John Adams High School,2020
springfield boulevard,Q,63290,Queens Preparatory Academy,2020
springfield boulevard,Q,63290,George Washington Carver High School for the Sciences,2020
springfield boulevard,Q,63290,Preparatory Academy for Writers: A College Board School,2020
springfield boulevard,Q,63290,Excelsior Preparatory High School,2020
thomson avenue,Q,65120,Bard High School Early College Queens,2020
thomson avenue,Q,65120,Academy of Finance and Enterprise,2020
thomson avenue,Q,65120,High School of Applied Communication,2020
union street,Q,65490,Veritas Academy,2020
union street,Q,65490,Queens High School for Language Studies,2020
union street,Q,65490,Flushing High School,2020
utopia parkway,Q,65690,Francis Lewis High School,2020
van dam street,Q,65810,International High School at LaGuardia Community College,2020
van dam street,Q,65810,Middle College High School at LaGuardia Community College,2020
clawson street,R,23100,Staten Island Technical High School,2020
essex drive,R,27675,Gaynor McCown Expeditionary Learning School,2020
essex drive,R,27675,CSI High School for International Studies,2020
gordon street,R,29900,The Eagle Academy for Young Men of Staten Island,2020
hamilton avenue,R,31400,Curtis High School,2020
luten avenue,R,37280,Tottenville High School,2020
manor road,R,37850,Susan E. Wagner High School,2020
new dorp lane,R,39800,New Dorp High School,2020
ocean terrace,R,41320,The Michael J. Petrides School,2020
st josephs avenue,R,48985,Port Richmond High School,2020
st marks place,R,49100,Ralph R. McKee Career and Technical Education High School,2020
